basisofrecord,country,stateprovince,seq,institutioncode,collectioncode,catalognumber,scientificname,yearcollected,monthcollected,daycollected,collector,collectornumber,fieldnumber,county,locality,longitude,latitude,notes
PreservedSpecimen,Brasil,S�o Paulo,211,ESALQ,ESA,133034,Rhipsalis cereuscula,2015,8,7,"Barroso, R.M.; Kochanovski, F.J.; Montebeller,C.; Leme, F.M.; Bacci, L.F.; Marcelo-Pe�a, J.L.; Souza, V.C.; Rodrigues, R.R.; Tamashiro, J.Y.; Ivanauskas, N.M.",224,,Piracicaba,Esta��o Ecol�gica de Ibicatu. Floresta Estacional Semidecidual.,-47.82347,-22.7795541,"Epifita, ca. 30cm."
PreservedSpecimen,Brasil,Bahia,281,IMA,MAC,48413,Arrojadoa penicillata,1998,8,14,A.M.Miranda; F.Esteves; I.Fragoso,3030,,Pil�o Arcado,Goiabeira do brejo.,-42.810339,-10.074844,Ereto. Flores em bot�es esverdeados.
PreservedSpecimen,Brasil,S�o Paulo,304,FURB,FLOR,61154,Rhipsalis floccosa,2013,8,19,"Marcusso, G.M.",191,,Botucatu,"Escola do Meio Ambiente, ca. 850m.",-48.4586111,-22.9255556,Holoep�fita obrigat�ria
PreservedSpecimen,Brasil,Goi�s,307,FURB,FLOR,68560,,2012,10,21,"Paula-Souza, J.; Delfini, C.; Rigon, J.",11157,,Cristalina,"Estrada para o assentamento Vit�ria, ca. 2km E da BR-040.",-47.5861111,-16.7572222,"Em Cerrado degradado em beira de estrada. Planta de 50cm alt., frutos vin�ceos. Sobre afloramento rochoso"
MachineObservation,Brasil,Goi�s,308,FMM,FMM,2416,Discocactus heptacanthus,2016,10,15,,,,Alto Para�so de Goi�s,Parque Nacional da Chapada dos Veadeiros,-47.826458,-14.163411,H�bito: Erva; Dom�nio Fitogeogr�fico: Cerrado; Vegeta��o: Cerrado rupestre
MachineObservation,Brasil,Goi�s,309,FMM,FMM,2546,Pilosocereus machrisii,2017,9,29,,,,Alto Para�so de Goi�s,Parque Nacional da Chapada dos Veadeiros,-47.739756,-14.114578,H�bito: Erva; Dom�nio Fitogeogr�fico: Cerrado; Vegeta��o: Campo rupestre
PreservedSpecimen,Brasil,Minas Gerais,393,IMA,MAC,2051,Rhipsalis lindbergiana,1973,9,1,D.Sucre; et al.,10190,,Tim�teo,"Parque Florestal do Rio Doce, Reves de Belem.",-45.931442,-18.884675,"Ep�fita ca 2,5m de comprimento, Semi umbr�fila, Flores creme-esverdeados, Bot�es avermelhados."
PreservedSpecimen,Brasil,Goi�s,562,UFG,UFG,69407,Pilosocereus,2001,10,21,"Fonseca, M.L.; et al.",2991,,Monte Alegre de Goi�s,,-46.661111,-13.149167,"Erva heli�fita ca. 2,0 m altura; saxicola; clad�dios cor verde com espinhos; calice verde, p�talas brancas; estames escuros. Abundante neste local. (Pr�ximo � linha 6)."
PreservedSpecimen,Brasil,Mato Grosso,613,INPA,INPA,74955,Cactus,1976,11,30,"Mac�do, M",410,,Cuiab�,"Estrada do Engenho Velho, Estrada do Engenho Velho, Cuiab�.",-56,-15.6,Cerrado. Solo argiloso.
PreservedSpecimen,Brasil,Goi�s,629,INPA,INPA,233258,Cereus,2008,11,4,"Meneguzzo, TEC",25,,Planaltina,"Bioma Cerrado, fitofisionomia Mata Seca com afloramentos de calc�rio. Hospedeira de Encyclia linearifolioides (Kr�enzl.) Hoene (Orchidaceae; T.E.C. Meneguzzo & L.C. Santos 24, UB). Nas fendas de rocha calc�rea.",-47.969722,-15.406667,"Flores possivelmente brancas ou bege, caractere n�o preciso devido ao fato das flores estarem murchando. Caule 1,5-1,8(3,0) x 0,5-0,9m."
PreservedSpecimen,Brasil,Par�,631,INPA,INPA,224173,Cereus,2006,6,14,"Oliveira, DR de",73,,Oriximin�,,-56.155833,-13.043056,
PreservedSpecimen,Brasil,Bahia,640,FURB,UB,,Cereus jamacaru,2017,7,4,"Ara�jo, JF",IFN-589222.4,,Cotegipe,,-44.8197223,-11.8797223,"Medi��es na subunidade completa. Conglomerado BA-589. Subunidade 2. Subparcela 4. Indiv�duo 9; �rvore; 5m de altura; DAP 14,6cm. Exsudato aquoso, incolor, muito abundante, l�quido. Espinhos no caule. Base do caule do tipo reta; Conglom"
PreservedSpecimen,Brasil,Bahia,645,FURB,UB,,Pereskia stenantha,2017,9,15,"Moura, EO",IFN-100315814.1,,Bom Jesus da Lapa,,-43.3797223,-13.5,"Medi��es na subunidade completa. Conglomerado BA-1003. Subunidade 4. Subparcela 1. Indiv�duo 1; �rvore, altura 4,5m, DAP 6,8cm. Presen�a de espinhos no caule/fuste. Base reta. Fruto imaturo de cor externa verde, cor interna verde claro"
PreservedSpecimen,Brasil,Maranh�o,646,FURB,UB,,Melocactus zehntneri,2018,1,31,"Silva, RM",IFN-721258-,,Carolina,,-46.9802778,-7.2002778,Conglomerado MA-721. Subunidade -. Subparcela -. Indiv�duo 3. Extra; H�rbacea. Espinhos; �rea plana de Cerrado sentido restrito
PreservedSpecimen,Brasil,Bahia,651,UFBA,ALCB,20803,Pereskia bahiensis,2008,11,19,"Dourado, ACP; et al.",8,,Morro do Chap�u,Fazenda do Cristal.,-44.180278,-11.820278,"com ca. 1,30 m. Folhas dispostas alternamente, cori�cea e sem p�los. Flor rosa, com cheiro. Presen�a de espinhos."
PreservedSpecimen,Brasil,Bahia,661,UFBA,ALCB,59546,,2001,4,2,"Jardim, JG; Juchum, F; Sant'Ana, SC de; Santos, B; Querino, R",PFB3438,,Malhada,"rod. para Distrito de Canabrava, 18 km S da sede municipal, 1,6 km do povoado de Serra de Jo�o Alves.",-43.753333,-14.4525,"�rvore. ca. 6 m alt. Fol�olos verdes, face inferior mais clara. Flores com p�talas amarelas. Frutos imaturos verde-claro.; Caatinga arb�rea."
PreservedSpecimen,Brasil,Maranh�o,664,UFBA,ALCB,122126,,2015,10,6,"Guedes, ML; Chagas, F das; Silveira, ER",24138,,Barra do Corda,Cachoeira do Rio do Corda.,-45.292778,-5.688056,Folhas com vena��o paralelin�rvea. Infloresc�ncia protegida por br�cteas foli�ceas.
PreservedSpecimen,Brasil,Bahia,673,UFBA,ALCB,80158,,2007,8,27,"Guedes, ML; Carvalho, G; Gomes, FS; Valad�o, RM",13693,,Cocos,"Oeste, Faz. Barriguda",-44.558333,-14.248889,"de ca 6 m de altura. PAP 77 cm. Infloresc�ncia com bot�es esverdeados. T1P1, ind. n� 09."
PreservedSpecimen,Brasil,Piau�,682,FURB,UB,,,2018,7,10,"Viana, G",IFN-555101extra,,Bom Jesus,Fazenda Lagoa.,-44.2802778,-9.3594444,"Conglomerado PI-555. Extra; �rvore; dap: 13,9; ht: 6,00; presen�a de espinhos; base reta; casca: esverdeado (cor externa),esverdeado (cor interna), fina, lisa; �rea de vegeta��o mata seca, floresta dec�dua."
PreservedSpecimen,Brasil,Bahia,683,FURB,UB,,Arrojadoa dinae,2018,1,19,"Moraes, TM",IFN-6541253extr,,Muqu�m de S�o Francisco,,-43.3797223,-12.24,"Conglomerado BA-694. Subunidade -. Subparcela -. Indiv�duo -. Extra; Arbusto, altura 1,40m. Presen�a de espinhos no caule. Base reta. Flor f�csia; Solo arenoso, relevo plano, outras fisionomias com predomin�ncia de arbusto"
PreservedSpecimen,Brasil,Bahia,685,FURB,UB,,Arrojadoa rhodantha,2017,8,12,"Moura, EO",IFN-6381486extr,,Angical,,-44.8241667,-12.0472222,"Coleta n�o registrada em formul�rios anteriores - Extra. Conglomerado BA-638. Subunidade -. Subparcela -. Indiv�duo -; Herb�cea. Espinhos no caule. Flores r�seas; Borda de mata seca, solo arenoso. Popula��es se desenvolvendo sombra,"
PreservedSpecimen,Brasil,Bahia,686,FURB,UB,,Discocactus catingicola,2017,8,21,"Moura, EO",IFN-9931524extr,,Correntina,,-45.1797223,-13.5058333,"Coleta n�o registrada em formul�rios anteriores - extra. Conglomerado BA-993. Subunidade -. Subparcela -. Indiv�duo -; Herb�cea; Margens de vereda. Solo areno-argiloso, seco"
PreservedSpecimen,Brasil,Goi�s,687,FURB,UB,216938,Discocactus fariae-peresii,2015,12,10,"Faria, BP; Peres, A",s.n.,,Planaltina,,-47.5075,-15.2638889,"Plants single, flat-globular, 16-22cm in diameter, sterile when collected; Highland Campo cerrado and Campo rupestre, between rocks and sandy soil"
PreservedSpecimen,Brasil,Maranh�o,702,UEMA,SLUI,4942,Melocactus violaceus,2017,4,6,"Saraiva, R.V.C.",38,,Carolina,Parque Nacional da Chapada das Mesas,-47.041,-7.315778,"Arbusto, folhas grandes com espinhos, frutos verdes, flor branca com estames amarelos, presen�a de formigas."
PreservedSpecimen,Brasil,Paran�,709,FURB,UNOP,UNOP 1930,Parodia ottonis,2013,10,11,"Silva, J.M.; Motta, J.T.",8370,,Ponta Grossa,Furnas de Itaiacoca.,-49.9555556,-25.1469444,Rup�cola. Flor amarela. Campo rupestre.
PreservedSpecimen,Brasil,Bahia,710,UEFS,HUEFS,84905,Discocactus catingicola,2004,1,14,"Machado, M.",125C,,Barreiras,Cachoeira do Redondo no Rio de Janeiro (cerca de 20km em estrada de terra depois da Cachoeira do Acaba Vidas),-45.439722,-11.448056,"Cacto disc�ide-globular, colora��o verde-clara."
PreservedSpecimen,Brasil,Bahia,711,UEFS,HUEFS,84835,Discocactus heptacanthus subsp. catingicola,2004,1,14,"Machado, M.",125A,,Barreiras,Cachoeira do Redondo no Rio de Janeiro (cerca de 20km em estrada de terra depois da Cachoeira do Acaba Vidas),-45.439722,-11.448056,"Cacto disc�ide-globular, colora��o verde-clara."
PreservedSpecimen,Brasil,Bahia,712,UEFS,HUEFS,84834,Discocactus heptacanthus subsp. catingicola,2004,1,13,"Machado, M.",105,,S�o Desid�rio,"S�tio Grande, localidade conhecida como Jatob�s",-45.076944,-12.073889,"Cacto disc�ide-globular, colora��o verde-clara."
PreservedSpecimen,Brasil,Bahia,713,UEFS,HUEFS,84837,Discocactus catingicola,2004,1,16,"Machado, M.",146,,Coribe,cerca de 10km ao sul da cidade na BR 136,-44.432222,-13.4325,"Cacto disc�ide-globular, colora��o verde-escuro, glauco."
PreservedSpecimen,Brasil,Bahia,714,UEFS,HUEFS,43865,Quiabentia zehntneri,2000,2,17,"Queiroz, L.P.de",6113,,Santa Maria da Vit�ria,"morro onde se encontra a torre de telefone, ca. 3,6 km NE da estrada Santa Maria da Vit�ria - Santana, entrando a ca. 10 km N de Santa Maria da Vit�ria.",-44.115278,-13.103611,"Arbusto suculento de ca. 2 m alt., caule acastanhado. Folhas crassas. Flores com t�palas graduadas, de carnosas e verdes, na base, at� membran�ceas e rosa-choque no �pice. Frutos imaturos acastanhados. Crescendo nos afloramentos calc�reos."
PreservedSpecimen,Brasil,Bahia,723,UEFS,HUEFS,139767,Quiabentia,2008,1,11,"Rapini, A.",1538,,S�o F�lix do Coribe,Rumo Novo em dire��o ? Alagoinhas,-43.972222,-13.978889,"Planta rup�cola. Perianto rosa, estames e gineceu amarelos."
PreservedSpecimen,Brasil,Bahia,729,UEFS,HUEFS,118327,Cereus jamacaru,2007,4,11,"Queiroz, L.P.de",12829,,Coribe,"Ca, 5 Km S em estrada de terra que cruza pequeno ramal que sai a 5.1 km E de Ponto d'�gua, a 24,4 Km S de S�o F�lix do Coribe na estrada para Coribe.",-44.32,-13.319444,"Cacto colunar, ca. 3,0 m alt."
PreservedSpecimen,Brasil,Bahia,745,UEFS,HUEFS,131491,Cereus mirabella,2007,11,3,"Ara�jo, G.",368,,Formosa do Rio Preto,Primavera.,-45.071944,-11.0775,Planta com caule clad�dio. Com flores.
PreservedSpecimen,Brasil,Bahia,746,UEFS,HUEFS,131500,Cereus mirabella,2007,11,3,"Ara�jo, G.",377,,Formosa do Rio Preto,Primavera.,-45.071944,-11.0775,"Clad�dio, com flores."
PreservedSpecimen,Brasil,Mato Grosso do Sul,748,UEFS,HUEFS,231152,Cereus stenogonus,2010,12,5,"Quinet, A.",2364,,Bonito,Rio Perdido.,-56.720833,-21.725,
PreservedSpecimen,Brasil,Minas Gerais,749,UEFS,HUEFS,253465,Arthrocereus melanurus,2007,12,8,"Souza, F.S.",322,,Rio Preto,R.P.P.N. S�o Louren�o do Funil.,-43.951111,-18.950556,
PreservedSpecimen,Brasil,Bahia,750,UEFS,HUEFS,84838,Discocactus heptacanthus subsp. catingicola,2004,1,17,"Machado, M.",160A,,Santana,"pr�ximo ? vila de Porto Novo, cerca de 1km da vila na estrada para Santana, da� 5km em estrada vicinal",-43.894722,-13.894444,"Cacto disc�ide-globular, colora��o verde-clara."
PreservedSpecimen,Brasil,Bahia,751,UEFS,HUEFS,84900,Discocactus catingicola,2004,1,17,"Machado, M.",160B,,Santana,"pr�ximo ? vila de Porto Novo, cerca de 1km da vila na estrada para Santana, da� 5km em estrada vicinal",-43.894722,-13.894444,"Cacto disc�ide-globular, colora��o verde-clara."
PreservedSpecimen,Brasil,Bahia,752,UEFS,HUEFS,84901,Discocactus heptacanthus subsp. catingicola,2004,1,17,"Machado, M.",160C,,Santana,"pr�ximo ? vila de Porto Novo, cerca de 1km da vila na estrada para Santana, da� 5km em estrada vicinal",-43.894722,-13.894444,"Cacto disc�ide-globular, colora��o verde-clara."
PreservedSpecimen,Brasil,Goi�s,781,UEFS,HUEFS,84902,Discocactus catingicola,2004,1,15,"Machado, M.",131B,,Posse,Arredores da cidade.,-46.315556,-14.305556,"Cacto disc�ide, colora��o verde-clara."
PreservedSpecimen,Brasil,Goi�s,782,UEFS,HUEFS,84836,Discocactus heptacanthus subsp. catingicola,2004,1,15,"Machado, M.",131A,,Posse,arredores da cidade,-46.315556,-14.305556,"Cacto disc�ide-globular, colora��o verde-clara."
PreservedSpecimen,Brasil,Goi�s,783,UEFS,HUEFS,84903,Discocactus heptacanthus subsp. catingicola,2004,1,15,"Machado, M.",131C,,Posse,Arredores da cidade.,-46.315556,-14.305556,"Cacto disc�ide-globular, colora��o verde-clara."
PreservedSpecimen,Brasil,Bahia,784,UEFS,HUEFS,84904,Discocactus heptacanthus subsp. catingicola,2004,1,14,"Machado, M.",125B,,Barreiras,Cachoeira do Redondo no Rio de Janeiro (cerca de 20km em estrada de terra depois da Cachoeira do Acaba Vidas),-45.439722,-11.448056,"Cacto disc�ide-globular, colora��o verde-clara."
PreservedSpecimen,Brasil,Bahia,837,UEFS,HUEFS,180289,Melocactus violaceus,2011,7,29,"Matos, E.N.de",302,,Conde,Fazenda Cezo.,-49.587222,-11.596111,Cabe�a-de-frade Cacto terrestre. Flores rosa. LA 164
PreservedSpecimen,Brasil,Bahia,839,UEFS,HUEFS,130801,Melocactus zehntneri,2007,6,22,"Martinelli, G.",16210,,S�o Desid�rio,,-44.953611,-12.9625,
PreservedSpecimen,Brasil,Goi�s,860,UEFS,HUEFS,149429,Micranthocereus estevesii,2009,4,23,"Cardoso, D.",2519,,S�o Domingos,"Afloramento calc�rio em frente da Fazenda Cedro, depois da travessia da balsa de S�o Domingos.",-46.830556,-13.828056,"Cacto arborescente 1-2,5 m alt., com apenas uma coluna, crescendo entre as pedras. Flores com p�talas brancas e odor suave; antese noturna. Foto."
PreservedSpecimen,Brasil,Bahia,888,UEFS,HUEFS,161783,Leocereus bahiensis,2010,5,22,"Queiroz, L.P.de",14729,,Pil�o Arcado,I� Grande.,-42.836111,-10.837778,"Cacto colunar, cil�ndrico, ca. 1,0 m alt. Flores com p�talas brancas."
PreservedSpecimen,Brasil,Bahia,920,UEFS,HUEFS,118328,Facheiroa cephaliomelana,2007,4,11,"Queiroz, L.P.de",12830,,Coribe,"Ca, 5 Km S em estrada de terra que cruza pequeno ramal que sai a 5.1 km E de Ponto d'�gua, a 24,4 Km S de S�o F�lix do Coribe na estrada para Coribe.",-44.32,-13.319444,"Cacto colunar, ca. 3,0 m alt."
PreservedSpecimen,Brasil,Bahia,921,UEFS,HUEFS,62463,Facheiroa cephaliomelana,2001,4,14,"Jardim, J.G.",3486,,Serra do Ramalho,"Ca. 18 km da cidade, entarda pela agrovila 10.",-43.752222,-13.760556,"Herb�cea ca. 1,0 m alt. Clad�dios verdes. Est�ril. Frequente sobre as rochas."
PreservedSpecimen,Brasil,Bahia,980,UEFS,HUEFS,103937,Arrojadoa penicillata,2005,12,9,"Concei��o, A.A.",1536,,Pil�o Arcado,Caminho para Brejo do Zacarias(Brejinho).,-42.799722,-10.799722,Cactos 50 cm alt. Frutos vermelhos.
PreservedSpecimen,Brasil,Baha,987,UEFS,HUEFS,240216,Opuntia,1997,7,29,Equipe Projeto Abelhas.,3,,Barra,Distrito de Ibiraba.,-42.821389,-10.819722,
PreservedSpecimen,Brasil,Bahia,1128,UEFS,HUEFS,43556,Quiabentia zehntneri,2000,2,10,"Queiroz, L.P.de",5809,,Bom Jesus da Lapa,Morro acima da igreja no centro da cidade.,-43.419722,-13.425556,"Cacto arbustivo a arborescente, 1-7 m alt.; tronco at� 7 cm DAP; planta quebradi�a nos n�s. Folhas suculentas. Flores com t�palas apresentando transi��o gradual de s�pala, carnosa e esverdeada, para p�tala, membran�cea e r�sea. Freq�ente."
PreservedSpecimen,Brasil,Bahia,1129,UEFS,HUEFS,118265,Quiabentia zehntneri,2007,4,11,"Queiroz, L.P.de",12768,,Coribe,"Ca, 5 Km S em estrada de terra que cruza pequeno ramal que sai a 5.1 km E de Ponto d'�gua, a 24,4 Km S de S�o F�lix do Coribe na estrada para Coribe.",-44.32,-13.319444,"Arbusto a arvoreta, 1,0-3,0 m alt. Folhas suculentas."
PreservedSpecimen,Brasil,Minas Gerais,1130,UEFS,HUEFS,67951,Quiabentia zehntneri,2003,1,8,"Queiroz, L.P.de",7506,,Riacho da Cruz,Entrocamento da estrada para Janu�ria.,-44.247778,-15.2375,"Arbusto de at� 2 m de altura, suculento, geralmente ramificado apenas no �pice. Folha suculenta. Est�ril. Foto, DNA."
PreservedSpecimen,Brasil,Bahia,1131,UEFS,HUEFS,42573,Quiabentia zehntneri,1999,12,6,"Melo, E.",3228,,S�o F�lix do Coribe,Pedreira numa forma��o semelhante ? quela encontrada em Bom Jesus da Lapa.,-44.212222,-13.215278,"Arbusto espinescente crasso. P�talas rosadas, filete rosado, anteras amarelo-claras, estilete amarelo, estigma amarelo."
PreservedSpecimen,Brasil,S�o Paulo,1262,UEFS,HUEFS,179663,Lepismium houlletianum,2008,6,24,"Almeida, R.S.",21,,Itaber�,"Esta��o Ecol�gica, trilha do meio.",-49.143056,-23.134722,
PreservedSpecimen,Brasil,Bahia,1285,NBC,NL-BOTANY,U.1180601,Pereskia stenantha,1980,4,19,Harley RM; Bromley GL; Carvalho AMV de; Hage JL; Brito HS,"Harley, RM; Bromley, GL; Carvalho, AMV de; Hage, JL; Brito, HS 21543",,,"Basin of the Upper S�o Francisco River. Fazenda Imbuzeiro da On�a, c. 8 km. from Bom Jesus da Lapa, on by-road to Calder�o.",-43.366667,-13.15,Habitat: Caatinga with cultivation.
PreservedSpecimen,Brasil,Bahia,1286,NBC,NL-BOTANY,U.1180602,Pereskia stenantha,1980,5,1,Harley RM; Bromley GL; Carvalho AMV de; Hage JL; Brito HS,"Harley, RM; Bromley, GL; Carvalho, AMV de; Hage, JL; Brito, HS 22011",,,"Chapad�o Ocidental da Bahia. 5 km. to the North of Tabocas, which is 10 km. N.W. of Serra Dourada.",-44.033333,-12.65,"Habitat: Disturbed deciduous forest, cultivation and marshy area with rice fields."
PreservedSpecimen,Brasil,S�o Paulo,1302,UNESP-IBB,BOTU,1165,Rhipsalis,1972,10,31,"Ferreira, M.E.",12,,Botucatu,Pr�ximo a esta��o da estrada de ferro Sorocabana,-48.416667,-22.75,"Vegeta��o de cerrado solo arenoso, arbusto"
PreservedSpecimen,Brasil,S�o Paulo,1303,UNESP-IBB,BOTU,1174,Rhipsalis,1972,9,6,"Katayama, P.S.",19,,Botucatu,"A 20 km de Botucatu, Fazenda Mac e 4 Meninas",-48.375,-22.875,Ep�fita de 2 metros
PreservedSpecimen,Brasil,S�o Paulo,1304,UNESP-IBB,BOTU,1175,Rhipsalis,1972,9,9,"Doi, T.",51,,Botucatu,"A 20 km de Botucatu, Fazenda Mac",-48.375,-22.875,"Ep�fita, flor branca"
PreservedSpecimen,Brasil,S�o Paulo,1305,UNESP-IBB,BOTU,1177,Rhipsalis baccifera,1972,9,6,"Rodrigues, J.M.V.",24,,Botucatu,,-48.375,-22.875,"Planta de 1,5 m de altura, caule verde, flor amarela"
PreservedSpecimen,Brasil,S�o Paulo,1306,UNESP-IBB,BOTU,1178,Rhipsalis baccifera,1972,9,19,"Souza, E.L.",14,,Botucatu,,-48.375,-22.875,Planta sem folhas e flor branca
PreservedSpecimen,Brasil,S�o Paulo,1307,UNESP-IBB,BOTU,1179,Rhipsalis baccifera,1972,9,19,"Jaquetti Jr., J.",37,,Botucatu,,-48.375,-22.875,"Ep�fita, flores brancas, caule suculento"
PreservedSpecimen,Brasil,S�o Paulo,1308,UNESP-IBB,BOTU,1168,Rhipsalis cereuscula,1972,9,19,"Alonso, J.C.",24,,Botucatu,"A 20 km de Botucatu, Fazenda Mac",-48.5,-22.866667,"Ep�fita, flor amarela, sem cheiro"
PreservedSpecimen,Brasil,S�o Paulo,1309,UNESP-IBB,BOTU,29408,Rhipsalis floccosa,2003,11,11,"Bignotto, R.B.",127,,Botucatu,"Distrito de Rubi�o J�nior, UNESP IB - Jardim Bot�nico",-48.433333,-22.866667,"Ep�fita 4m, frutos brancos.; Cole��o: Jardim Bot�nico UNESP Botucatu"
PreservedSpecimen,Brasil,S�o Paulo,1310,UNESP-IBB,BOTU,35196,Rhipsalis floccosa,2020,7,23,"Biral, L.",2245,,Botucatu,Mata ciliar do Rio Lavap�s,-48.448725,-22.886792,
PreservedSpecimen,Brasil,S�o Paulo,1312,UNESP-IBB,BOTU,1180,Rhipsalis linearis,1972,9,19,"Jaquetti Jr., J.",2,,Botucatu,"A 20 km de Botucatu, Fazenda Mac e 3 Marias",-48.375,-22.875,Ep�fita com flor branca
PreservedSpecimen,Brasil,S�o Paulo,1313,UNESP-IBB,BOTU,29407,Riphsalis,2003,9,30,"Bignotto, R.B.",34,,Botucatu,"Distrito de Rubi�o J�nior, UNESP IB - Jardim Bot�nico",-48.433333,-22.866667,"Ep�fita a 6m, sobre tronco de �rvores, flores amarelas secas, frutos imaturos verdes e transparentes.; Cole��o: Jardim Bot�nico UNESP Botucatu"
PreservedSpecimen,Brasil,Bahia,1583,UEFS,HUEFS,72587,Arrojadoa rhodantha,2003,7,2,"Queiroz, L.P.de",7829,,Campo Alegre de Lourdes,"Morro do Tuiuiu, ca. 10 Km NW de Campo Alegre de Lourdes na estrada para Caracol e Pitomba",-43.872778,-9.867222,"Cacto arbustivo ca. 50 cm alt. Clad�dio verde-claro, espinhos brancos; cef�lio terminal, com espinhos avermelhados. Flores com t�palas rosa-choque UNICATA."
PreservedSpecimen,Brasil,Bahia,1630,UEFS,HUEFS,132733,Arrojadoa rhodantha,2007,12,28,"Guedes, M.L.S.",14099,,Carinhanha,1 Km do Rio Carinhanha.,-43.809722,-14.811111,
PreservedSpecimen,Brasil,Bahia,1631,UEFS,HUEFS,107386,Arrojadoa rhodantha,2004,1,17,"Machado, M.",796,,Santana,"pr�ximo ? vila de Porto Novo, cerca de 1km ao norte da vila na estrada para Santana, da� dobra-se ? direira e segue por mais 5km em estrada vicinal at� uma �rea de terreno arenoso",-43.894722,-13.894444,"Pequeno arbusto de ca. 50cm de altura, pouco ramificado, ramos de ca. 3cm de largura, desenvolvendo cef�lio terminal com recorr�ncia de crescimento vegetativo. Flores nascidas no cef�lio, diurnas, tubulares, de cor rosa; Frutos de cor vermelha, restos"
PreservedSpecimen,Brasil,Bahia,1644,UEFS,HUEFS,62516,Arrojadoa rhodantha,2001,4,15,"Jardim, J.G.",3500,,Carinhanha,"Rod. para Serra do Ramalho, 33,5 km da sede municipal.",-43.72,-14.73,"Clad�dios alcan�ando ca. 1,2 m alt. Flores r�seas, estames brancos."
PreservedSpecimen,Brasil,Bahia,1645,UEFS,HUEFS,55351,Arrojadoa rhodantha,2001,1,25,"Guedes, M.L.S.",7910,,Quixaba,"Caminho para Ipupiara, a 3 km.",-43.166667,-11.166667,
PreservedSpecimen,Brasil,Minas Gerais,2041,FUNED,FUNED-POL,4625,Pereskia stenantha,2010,10,28,"Bastos, E.M.A.F.",,,Jana�ba,Fazenda Coqueiros Mata Seca,-43.463056,-15.709167,
PreservedSpecimen,Brasil,Minas Gerais,2043,FUNED,FUNED-POL,4623,Tacinga inamoena,2010,8,12,"Bastos, E.M.A.F.",,,Jana�ba,Fazenda Coqueiros Mata Seca,-43.463056,-15.709167,
PreservedSpecimen,Brasil,S�o Paulo,2159,UNESP-IBB,BOTU,33070,Brasiliopuntia brasiliensis,2017,11,8,"Silva, S.C.M.",9,,Botucatu,"Rubi�o J�nior, R. Camino Meneguim",-48.846667,-22.996944,
PreservedSpecimen,Brasil,Mato Grosso do Sul,2162,UNESP-IBB,BOTU,22576,Cereus uruguayanus,1999,4,12,"Amaral Jr., A.",506,,Bataguassu,"Margem direita do Rio Paran�, Rio Pardo, Posto Fiscal-Quinze Novo",-52.200167,-21.691333,
PreservedSpecimen,Brasil,S�o Paulo,2166,UNESP-IBB,BOTU,1170,Lepismium warmingianum,1972,9,19,"Izar, L.A.H.",1,,Botucatu,"A 20 km de Botucatu, Fazenda Mac e 4 Meninas",-48.375,-22.875,Flor branca
PreservedSpecimen,Brasil,S�o Paulo,2167,UNESP-IBB,BOTU,1171,Lepismium warmingianum,1972,9,19,"Malosso, C.R.",1,,Botucatu,"A 20 km de Botucatu, Fazenda Mac",-48.375,-22.875,"Ep�fita, flor branca, sem cheiro"
PreservedSpecimen,Brasil,Paran�,2397,MBM,MBM,415102,Parodia carambeiensis,2018,10,6,"V�ltz, RR; Brotto, ML",1898,,Tibagi,"Rio Tibagi, Cerrado Bowman",-50.406111,-24.5525,Erva rup�cola sobre laje de pedra; corola amarelada; fisionomia herb�ceo-arbustiva.; Savana/Estepe.
PreservedSpecimen,Brasil,Paran�,2398,MBM,MBM,386209,Parodia ottonis,2013,10,11,"Silva, JM; Motta, JT",8370,,Ponta Grossa,Furnas de Itaiacoca,-49.955556,-25.146944,Rup�cola. Flor amarela.; Campo rupestre.
PreservedSpecimen,Brasil,Paran�,2434,MBM,MBM,390714,Lepismium houlletianum,2012,9,6,"Brotto, ML; V�ltz, RR",825,,Tibagi,Rio Tibagi,-50.401631,-24.560844,Erva ep�fita.; Floresta Ombr�fila Mista Aluvial.
PreservedSpecimen,Brasil,Paran�,2451,MBM,MBM,390711,Lepismium warmingianum,2012,9,6,"Brotto, ML; V�ltz, RR",823,,Tibagi,Rio Tibagi,-50.401631,-24.560844,Erva ep�fita.; Floresta Ombr�fila Mista Aluvial.
PreservedSpecimen,Brasil,Minas Gerais,2464,UFMG,BHCB,192551,Brasiliopuntia brasiliensis,2018,8,10,"Ferreira, VL; Stehmann, JR; Moreira, NC",20,,Lagoa Santa,Lapinha,-43.958889,-19.560556,"Planta com 1,5 metros e frutos vermelho escuro.; Afloramento de calc�reo. Maci�o. Ilha de solo."
PreservedSpecimen,Brasil,Minas Gerais,2465,UFMG,BHCB,192554,Brasiliopuntia brasiliensis,2018,9,18,"Ferreira, VL; Stehmann, JR",23,,Pedro Leopoldo,Lapa do Ba�,-43.992778,-19.548611,"Planta com 2 metros e frutos vermelho escuro .; Afloramento de calc�reo, mata seca."
PreservedSpecimen,Brasil,Minas Gerais,2466,UFMG,BHCB,200879,Brasiliopuntia brasiliensis,2019,11,8,"Ferreira, VL; Magalh�es, RA; Vilas Boas, T",439,,Pedro Leopoldo,Lapa do Ba�,-43.992222,-19.548333,Flor amarela; Afloramento de calc�rio. Rocha exposta no maci�o
PreservedSpecimen,Brasil,Minas Gerais,2467,UFMG,BHCB,200872,Cereus jamacaru calcirupicola,2019,11,8,"Ferreira, VL; Magalh�es, RA; Vilas Boas, T",433,,Pedro Leopoldo,Lapa do Ba�,-43.9925,-19.548056,Afloramento de calc�rio. Rocha exposta no maci�o
PreservedSpecimen,Brasil,Minas Gerais,2476,UNICAMP,UEC,114521,Brasilicereus markgrafii,2000,8,16,"Aona, LYS; Belinello, R",699,,Gr�o Mogol,"Parque Estadual G.M., inicio da trilha para Serra do Bar�o.",-45.886111,-16.653056,"At� 1 m, espinho central amarelo, bot�o com perianto externo esverdeado com �pice vermelho, cultivo."
PreservedSpecimen,Brasil,Minas Gerais,2488,UNICAMP,UEC,114874,Pilosocereus fulvilanatus fulvilanatus,2000,8,16,"Aona, LYS; Belinello, R",695,,Gr�o Mogol,"Estrada p/ Crist�lia, afloramento. 13 Km de Gr�o-Mogol.",-45.886111,-16.653056,"3m, ar�ola 0,5cm, cef�lio com pelos dourados, flor 5,5-6,5x3,5cm, fruto 8cm di�metro."
PreservedSpecimen,Brasil,Paran�,2505,MBM,MBM,390713,Rhipsalis cereuscula,2012,9,6,"Brotto, ML; V�ltz, RR",829,,Tibagi,Rio Tibagi,-50.401631,-24.560844,Erva ep�fita; flores brancas.; Floresta Ombr�fila Mista Aluvial.
PreservedSpecimen,Brasil,Paran�,2508,MBM,MBM,428228,Rhipsalis dissimilis,2017,6,1,"Lozano, ED; Ariati, V; V�ltz, RR; Roher, D; Santos, GH; Ferreira, PC",3700,,Ponta Grossa,"PARNA dos Campos Gerais, Buraco do Padre",-49.967944,-25.172,"Rup�cola, 30 cm, flores creme, em afloramento rochoso, campo cerrado.; Campos Gerais."
PreservedSpecimen,Brasil,Paran�,2545,MBM,MBM,385837,Ripsalis,2013,3,9,"Larocca, P; Felitto, G; Canestraro, BK; Lozano, ED",94,,Tibagi,Fazenda Pinheirinho,-50.272817,-24.63215,"Ep�fita pendente, frutos imaturos r�seos; Beira de cap�o"
PreservedSpecimen,Brasil,Paran�,2551,MBM,MBM,415041,Hatiora salicornioides,2018,10,7,"V�ltz, RR; Brotto, ML",1863,,Tibagi,Rio Tibagi,-50.401389,-24.552778,Erva ep�fita no interior de floresta de encosta pr�ximo ao rio; flores amareladas.; Ecotono Floresta Ombr�fila Mista / Floresta Estacional Semidecidual.
PreservedSpecimen,Brasil,Bahia,2560,UNICAMP,UEC,114518,Opuntia saxatilis,2000,8,20,"Aona, LYS; Belinello, R",736A,,Porto Velho,"Estrada de terra em dire��o a Santana., afloramento entre caatinga.",-43.934444,-13.2375,"Clad�dio 21x10cm, t�palas amarelas, flor aberta ? s 11:00h, lepd�pteros visitando as flores."
PreservedSpecimen,Brasil,S�o Paulo,2565,UNICAMP,UEC,197454,Pereskia,2012,8,29,"Monge, M; Martins, ERF; Tamashiro, JY",1117,,Campinas,Mata Santa Genebra. Bairro Real Parque.&nf;Na borda da Mata,-47.763889,-22.827778,"Arbusto, 2 m de altura, frutos esverdeados e amarelados.; Floresta Estacional Decidual"
PreservedSpecimen,Brasil,Bahia,2588,UNICAMP,UEC,52511,Pereskia stenantha,1980,5,1,"Harley, RM; Bromley, GL; Carvalho, AM; Hage, JL; Brito, HS",22011,,Brejol�ndia,"Chapad�o Ocidental da Bahia, 5 Km to the North of Tabocas, which is 10 Km N.W. of Serra Dourada. Disturbed deciduous forest, cultivation and marshyarea with rice fields.",-44.605858,-12.810389,"Shrub to 3 m with few spines. Leaves fleshy, mid green, paler beneath. Flower bud bright pinkish red, surrounded by smaller fleshy green leaves. Fruit green."
PreservedSpecimen,Brasil,Bahia,2594,UNICAMP,UEC,114876,Pilosocereus densiareolatus,2000,8,20,"Aona, LYS; Belinello, R",737,,Porto Velho,Estrada de terra em dire��o a Santana.,-43.934444,-13.2375,"13-14 costelas, cultivo.; Afloramento entre caatinga."
PreservedSpecimen,Brasil,Bahia,2601,UNICAMP,UEC,114877,Pilosocereus gounellei zehntneri,2000,8,20,"Aona, LYS; Belinello, R",735,,Porto Velho,"Estrada de terra em dire��o a Santana, afloramento entre caatinga.",-43.934444,-13.2375,"2m de altura, ramificado na base e a partir do eixo principal, epiderme verde-azulada, ar�ola 1-1,5cm, cef�lio com tufos de pelos novos brancos e tufos com pelos velhos com base dourada, cultivo."
PreservedSpecimen,Brasil,Bahia,2615,UNICAMP,UEC,114702,Melocactus levitestatus,2000,8,20,"Aona, LYS; Belinello, R",736B,,Porto Velho,Estrada de terra em dire��o a Santana.,-43.934444,-13.2375,"30 cm de altura. 58 - 80 cm de di�metro. 10 - 12 costelas, cef�lio com 28 - 29 cm de di�metro, fruto branco 1,3 comprimento, cultivo.; Afloramento entre caatinga."
PreservedSpecimen,Brasil,Minas Gerais,2619,UNICAMP,UEC,106644,Micranthocereus auriazureus,1987,5,21,"Pirani, JR; Mello-Silva, R",CFCR10773,,Gr�o Mogol,Escarpas ? direita do riacho Ribeir�o.,-45.886111,-16.653056,"Entre rochas. Clad�dios ca. 60 cm de altura, n�o ramificados ou somente na base. Espinhos novos aureos. Bot�es rosa-intenso."
PreservedSpecimen,Brasil,Minas Gerais,2620,UNICAMP,UEC,115071,Micranthocereus auriazureus,2000,8,16,"Aona, LYS; Belinello, R",690,,Gr�o Mogol,"Estrada p/ Crist�lia, afloramento. 13 Km de Gr�o Mogol.",-45.886111,-16.653056,"At� 1,5. Ar�ola: 1 cm, espinhos das ar�olas da base com crescimento hipertr�fico, 7 cm, amarelos, flor 3x1,5 cm, cultivo."
PreservedSpecimen,Brasil,Bahia,2621,UNICAMP,UEC,114977,Micranthocereus dolichospermaticus,2000,8,20,"Aona, LYS; Belinello, R",734,,Porto Velho,"Porto Velho, estrada de terra em dire��o a Santana.",-43.934444,-13.2375,"2,5 m de altura. N�o ramificados na base, espinhos longos na base, ar�ola 0,5 cm. Indiv�duos jovens glaucos, indiv�duos adultos verdes, flores fechadas ? s 11:00 h, salm�o p�lido, cultivo.; Afloramento entre caatinga."
PreservedSpecimen,Brasil,Goi�s,2626,UNICAMP,UEC,202557,Micranthocereus estevesii,2016,10,17,"Olsthoorn, G; Alencar, LD",GO633,,Monte Alegre de Goi�s,"Na estrada de Campos Belos para Nova Roma, aproximadamente 16 km ao sul do in�cio da estrada.",-46.831944,-13.402778,"Cacto colunar alto, com at� 4 metros de altura, solit�rio sem ramifica��es laterais, ceph�lio lanoso branco na parte superior da planta e com flores brancas"
PreservedSpecimen,Brasil,Minas Gerais,2627,UNICAMP,UEC,198817,Micranthocereus violaciflorus,2015,11,11,"Mendes, DB; Machado, M",66,,Porteirinha,"Topo de morro com antenas de telecomunica��es. No mesmo local tamb�m havia<em> Arrojadoa rhodantha, Cereus albicaulis, Melocactus zehntneri, Pilosocereus schoebelli.</em>",-43.248361,-15.792722,
PreservedSpecimen,Brasil,Paran�,2643,UNICAMP,UEC,98104,Rhipsalis teres,1997,12,18,"Torezan, JMD; Arima, LIA; Pimenta, JA; Resende, JCF; Sifuentes, DVO; Rodrigues, RR",764,,Seng�s,Fazenda Pisa-Papel e celulose.,-49.403889,-24.202222,"Erva ep�fita, flor esverdeada com estames brancos.; Floresta Higr�fila, Mata perturbada."
PreservedSpecimen,Brasil,S�o Paulo,2752,UNICAMP,UEC,98157,Rhipsalis puniceo-discus,1997,12,11,"Torezan, JMD; Arima, LIA; Pimenta, JA; Resende, JCF; Sifuentes, DVO; Rodrigues, RR",519,,Bom Sucesso de Itarar�,"Descida da Serra, 10 Km de Bom Sucesso.",-49.160833,-24.274444,"Erva rup�cola. Flores brancas. Frutos alaranjados.; Floresta Estacional Transi��o Montana-Submontana, beira da Estrada."
PreservedSpecimen,Brasil,Minas Gerais,2756,UFMG,BHCB,194350,Rhipsalis lindbergiana,2018,9,18,"Ferreira, VL; Stehmann, JR",33,,Pedro Leopoldo,Lapa do Ba�,-43.9925,-19.548333,"C�lice creme, estames brancos.; Afloramento de calc�rio. Maci�o. For�fito."
PreservedSpecimen,Brasil,Minas Gerais,2757,UFMG,BHCB,194390,Rhipsalis lindbergiana,2018,12,11,"Ferreira, VL; Stehmann, JR; Santos, GVA",106,,Pedro Leopoldo,Lapa do Ba�,-43.989444,-19.547778,Flores amarelas.; Borda de mata seca na base de afloramento calc�reo.
PreservedSpecimen,Brasil,Mato Grosso do Sul,2992,FURB,COR,16528,Cereus hildmannianus,2010,11,30,"Martinelli, G.; Fernandez, E.",16700,,Corumb�,"Morro do Caracar�, divisa com MT, pr�ximo ao PARNA do Pantanal. Floresta estacional semidec�dua com afloramentos rochosos.",-57.2605556,-15.5177778,"4 m de altura; caules verdes ramificados; espinhos castanhos; caule na base lenhoso; Com Flor: Flores com c�lice/ br�ctea verdes com margem no �pice vinoso, p�talas alvas, bot�es florais verde alvacentos, frequente Habito: Cacto colonar"
PreservedSpecimen,Brasil,Bahia,3103,UFS,ASE,18288,Pilosocereus tuberculatus,2009,11,11,"Prata, AP; Costa, SM; Nascimento - J�nior, JE",2083,,Pil�o Arcado,Dunas de Salinas,-42.687611,-10.262222,"5-costado, polpa do fruto maduro rosa-choque.; 5-costado, polpa do fruto maduro rosa-choque."
PreservedSpecimen,Brasil,Bahia,3104,UFS,ASE,18289,Pilosocereus tuberculatus,2009,11,11,"Prata, AP; Costa, SM; Nascimento - J�nior, JE",2096,,Barra,Vereda de Dois Riachos,-43.141389,-11.089444,"5-costado, fruto com polpa rosa-choque.; 5-costado, fruto com polpa rosa-choque."
PreservedSpecimen,Brasil,Bahia,3105,UFS,ASE,18291,Pilosocereus tuberculatus,2009,11,11,"Prata, AP; Costa, SM; Nascimento - J�nior, JE",2084,,Pil�o Arcado,Dunas de Salinas,-42.687611,-10.262222,"Arbusto, ca. 2 m. 6-costado, est�ril.; Arbusto, ca. 2 m. 6-costado, est�ril."
PreservedSpecimen,Brasil,Bahia,3149,UFS,ASE,18287,Melocactus zehntneri,2009,11,11,"Prata, AP; Costa, SM; Nascimento - J�nior, JE",2097,,Barra,Vereda de Dois Riachos,-43.141389,-11.089444,"Clad�dio f�rtil rosado, fruto rosa.; Clad�dio f�rtil rosado, fruto rosa."
PreservedSpecimen,Brasil,Bahia,3157,UFS,ASE,18286,Arrojadoa penicillata,2009,11,11,"Prata, AP; Costa, SM; Nascimento - J�nior, JE",2082,,Pil�o Arcado,Dunas de Salinas,-42.687611,-10.262222,"Cacto com ca. 50 cm. de alt. 9-costado, fruto rosa.; Cacto com ca. 50 cm. de alt. 9-costado, fruto rosa."
PreservedSpecimen,Brasil,Bahia,3213,UFS,ASE,18147,Tacinga inamoena,2009,11,6,"Prata, AP; Costa, SM; Nascimento - J�nior, JE",1993,,Barra,"Brejo Olhos d'�gua, Estrada de volta para o Brejo Olhos d'�gua.",-43.141389,-11.089444,
PreservedSpecimen,Brasil,Bahia,3270,FURB,UB,,Cereus albicaulis,2018,1,19,"Moraes, TM",IFN-6941254extr,,Muqu�m de S�o Francisco,,-43.3797223,-12.24,"Conglomerado BA-694. Subunidade -. Subparcela -. Indiv�duo -. Extra; Arbusto, altura 2,30m. Base reta; Solo arenoso, relevo plano, outras fisionomias com predomin�ncia de arbusto"
PreservedSpecimen,Brasil,Bahia,3271,FURB,UB,,Cereus albicaulis,2017,7,18,"Soares, AS",IFN-5392091.1,,Riach�o das Neves,,-45,-11.7,"Conglomerado BA_539. Subunidade 1. Subparcela 1. Indiv�duo 5.&nf;F8 - Avalia��o da regenera��o natural; Arbusto 1,3m. Estruturas no caule/fuste tipo espinhos. Base do tipo reta; Cerrad�o com solo arenoso"
PreservedSpecimen,Brasil,Piau�,3272,FURB,UB,,Cereus albicaulis,2017,10,27,"Gomes, MS",IFN-5713342.1,,Reden��o do Gurgu�ia,,-44.46,-9.54,"Conglomerado PI-571. Subunidade 2. Subparcela 1. Indiv�duo 1. F8; Cacto com 1,60m, com espinhos; Cerrado em regi�o com morros"
PreservedSpecimen,Brasil,Bahia,3275,FURB,UB,,Cereus jamacaru,2017,12,14,"Moraes, TM",IFN-3099731.6,,Santa Rita de C�ssia,,-44.6408333,-10.7997222,"Conglomerado BA-309. Subunidade 1. Subparcela 6. Indiv�duo 28. F6; �rvore, altura 3,7m, DAP 10,6cm. Presen�a de espinhos no caule. Base reta; Solo pedregoso, relevo ondulado, Cerrado"
PreservedSpecimen,Brasil,Bahia,3276,FURB,UB,,Cereus jamacaru,2018,1,10,"Soares, AS",IFN-315438extra,,Buritirama,,-43.5597222,-10.8,"Conglomerado BA-315. Subunidade 2. Subparcela 5. Indiv�duo 9. F6; �rvore; 5,5m; DAP 13cm. Presen�a de espinhos no caule. Base do caule reta. Fruto imaturo; 3x7cm; exterior verde, interior branco; carnoso, com polpa; Solo areno-argilos"
PreservedSpecimen,Brasil,Paran�,3335,UNICAMP,UEC,98102,Hatiora salicornioides,1997,12,18,"Torezan, JMD; Arima, LIA; Pimenta, JA; Resende, JCF; Sifuentes, DVO; Rodrigues, RR",757,,Seng�s,Fazenda Pisa-Papel e celulose.,-49.403889,-24.202222,"Erva, ep�fita, frutos maduros r�seos.; Floresta Higr�fila, mata perturbada."
PreservedSpecimen,Brasil,Minas Gerais,3362,UNICAMP,UEC,114520,Brasilicereus markgrafii,2000,8,16,"Aona, LYS; Belinello, R",691,,Gr�o Mogol,"Estrada p/ Crist�lia, afloramento. 13 km de Gr�o -Mogol.",-45.886111,-16.653056,"At� 1 m, cultivo."
PreservedSpecimen,Brasil,Mato Grosso,3372,UNICAMP,UEC,114411,Cereus,1997,3,17,"Souza, VC; Souza, JP; Duarte, AR; Mazine, FF",14316,,S�o Felix do Araguaia,"Beira do Rio Araguaia, pr�ximo ? cidade de S�o F�lix do Araguaia. Arredores do Lago dos Ingleses e da Fazenda CCA.",-50.67325,-11.636583,Planta at� 6 m de altura; frutos verdes com nuances avermelhados; polpa alva.; Savana Parque. �rea arborizada (Cerrado em solo arenoso).
PreservedSpecimen,Brasil,Minas Gerais,3385,UNICAMP,UEC,124893,Tacinga inamoena,2001,10,20,"Lombardi, JA; Dutilh, JHA; Semir, J",4466,,Verdel�ndia,"Lado direito da estrada Jaiba/Verdel�ndia, entre os kms 118-116.",-44.00555,-15.996228,"Lageado. Arbusto sobre rocha, ca. 0,5m, frutos imaturos verdes."
PreservedSpecimen,Brasil,Minas Gerais,3386,UNICAMP,UEC,161455,Tacinga werneri,,,,"Dutilh, JHA; Semir, J",s.n.,,Ja�ba,Furados.,-43.859167,-15.210278,
PreservedSpecimen,Brasil,Paran�,3430,UTFPR,HCF,18712,Parodia carambeiensis,2013,10,11,J.M. Silva,8370,,Ponta Grossa,Furnas de Itaiacoca,-49.955556,-25.146944,rup�cola. Flor amarela.
PreservedSpecimen,Brasil,Paran�,3475,UTFPR,HCF,9491,Rhipsalis dissimilis,2011,5,21,M.G. Caxamb�,3407,,Ponta Grossa,Arredores do Buraco do Padre,-49.9635,-25.162889,"erva suculenta, heli�fita, rup�cola, ca. 0,20 m. Flores amarelas. Frequente nos afloramentos areniticos."
PreservedSpecimen,Brasil,Minas Gerais,3588,UFU,HUFU,,Arthrocereus melanurus,2003,10,21,"Volpi, R.L.; Nakajima, J.N.; Pacheco, R.A.; Fleury-Silva; H.R & Rosa, P.O.",726,,Delfin�polis,Estrada para Gurita,-46.871111,-20.281111,"Planta ca. 0,4 m. Frutos verdes dourados; Cerrado Rupestre"
PreservedSpecimen,Brasil,Minas Gerais,3589,UFU,HUFU,26990,,2002,1,24,"Romero, R.",6207,,S�o Roque de Minas,"Parque Nacional da Serra da Canastra, Jusante da Vargem Bonita.",-46.364722,-20.332778,"Ep�fita, frutos r�seos.; Beira da estrada."
PreservedSpecimen,Brasil,Goi�s,3855,FURB,HJ,2328,Cereus bicolor,2005,10,31,"Souza, L.F.",2675,,Serran�polis,RPPN Pousada das Araras,-51.9952777,-18.4394444,frutos de cor verde Habitat: Mata seca Habito: arbustivo
PreservedSpecimen,Brasil,Goi�s,3859,FURB,HJ,6354,Praecereus euchlorus,2012,10,10,"Larocca, J.; Emiliano Ferreira, G.; Grala, F.",51,,Acre�na,BR 060,-50.4136111,-17.4147222,Habitat: Mata seca em afloramento rochoso Habito: herb�ceo
PreservedSpecimen,Brasil,Goi�s,3860,FURB,HJ,6355,Praecereus euchlorus,2012,10,10,"Larocca, J.; Emiliano Ferreira, G.; Grala, F.",52,,Acre�na,BR 060,-50.4136111,-17.4147222,Habitat: Mata seca em afloramento rochoso Habito: herb�ceo
PreservedSpecimen,Brasil,Goi�s,3861,FURB,HJ,6356,Praecereus euchlorus,2012,10,10,"Larocca, J.; Emiliano Ferreira, G.; Grala, F.",50,,Acre�na,BR 060,-50.4419444,-17.4688889,Habitat: Mata seca em afloramento rochoso Habito: herb�ceo
PreservedSpecimen,Brasil,Bahia,4037,UEFS,HUEFS,123964,Tacinga inamoena,2007,5,7,"Guedes, M.L.S.",13412,,Feira da Mata,"M�dio S�o Francisco, na margem do rio Carinhanha.",-44.2125,-14.215,
PreservedSpecimen,Brasil,Bahia,4038,UEFS,HUEFS,124056,Tacinga inamoena,2007,5,7,"Guedes, M.L.S.",13342,,Feira da Mata,M�dio S�o Francisco. Pr�ximo ao Rio Cariranhanha.,-44.2125,-14.215,
PreservedSpecimen,Brasil,Bahia,4039,UEFS,HUEFS,123771,Tacinga inamoena,2007,5,28,"Guedes, M.L.S.",13552,,Feira da Mata,"M�dio S�o Francisco, pr�ximo ? margem do rio Carinhanha.",-43.784444,-14.784722,
PreservedSpecimen,Brasil,Bahia,4059,UEFS,HUEFS,201662,Tacinga inamoena,2013,2,16,"Souza, I.M.",175,,Barra,Estrada para Limoeiro.,-42.942222,-10.948333,"Arbusto ca. 2,5 m altura. Folhas verdes. Bot�es amarelo-esverdeados, flores com filetes brancos."
PreservedSpecimen,Brasil,Bahia,4068,UEFS,HUEFS,235405,Tacinga inamoena,2017,3,8,"Pennington, R.T.",,,Barra,"Iberaba, dunes near village",-42.816667,-10.816667,"Common cactus, to 70cm. DNA."
PreservedSpecimen,Brasil,Bahia,4072,UEFS,HUEFS,245941,Tacinga inamoena,2018,2,19,"Cardoso, D.",4416,,Barra,"Ibiraba, Comunidade de Icatu, plot #1 Projeto Nordeste.",-42.819167,-10.820278,"Erva prostrada. Clad�dios verdes. Flor com p�talas alaranjadas, hipanto verde DNA."
PreservedSpecimen,Brasil,Bahia,4073,UEFS,HUEFS,25444,Tacinga inamoena,1997,2,24,"Queiroz, L.P.de",4826,,Barra,"Ibiraba (=Icatu), Santa Cruz, em frente ao povoado de Ibiraba, no caminho para os Brejos.",-42.833333,-10.833333,"Quip� Planta suculente, subarbustiva, ereta, de at� 40 cm, ou prostrada. Clad�dios verde-claros. Frutos maduros vermelho-amarelados. Comum."
PreservedSpecimen,Brasil,Bahia,4076,UEFS,HUEFS,62671,Tacinga inamoena,1996,6,23,"Giulietti, A.M.",PCD2966,,Xique-Xique,Dunas do rio S�o Francisco.,-42.772778,-10.771111,
PreservedSpecimen,Brasil,Tocantins,4114,UEFS,HUEFS,239824,Tacinga saxatilis,2017,7,13,"Pezzini, F.F.",277,,Novo Jardim,�rea da Sharp Mineradora,-46.636389,-11.635556,"Fotos, DNA."
PreservedSpecimen,Brasil,Bahia,4115,UEFS,HUEFS,239817,Tacinga saxatilis,2017,7,12,"Pezzini, F.F.",270,,S�o Desid�rio,Afloramento calc�rio,-44.9575,-12.960556,Fotos.
PreservedSpecimen,Brasil,Bahia,4116,UEFS,HUEFS,101132,Tacinga saxatilis,2005,10,13,"Queiroz, L.P.de",10991,,S�o F�lix do Coribe,"Ca. 50,9 Km S de Santa Maria da Vit�ria (em linha reta) na estrada para Alagoinhas.",-43.958889,-13.956111,"Cacto decumbente, ca. 30 cm alt., clad�dios verde-claros. Flores com ov�rio verde-claro e t�palas amarelas. Foto."
PreservedSpecimen,Brasil,Bahia,4139,UEFS,HUEFS,118301,Pereskia bahiensis,2007,4,11,"Queiroz, L.P.de",12803,,Coribe,"Ca, 5 Km S em estrada de terra que cruza pequeno ramal que sai a 5.1 km E de Ponto d'�gua, a 24,4 Km S de S�o F�lix do Coribe na estrada para Coribe.",-44.32,-13.319444,"Arvoreta ca. 3,5 m alt., suculenta. Folhas suculentas. Flores com p�talas vermelhas."
PreservedSpecimen,Brasil,Bahia,4147,UEFS,HUEFS,126662,Pereskia bahiensis,2007,5,26,"Guedes, M.L.S.",13571,,Carinhanha,"M�dio S�o Francisco, Foz do Rio Carinhanha.",-43.784444,-14.786389,
PreservedSpecimen,Brasil,Bahia,4153,UEFS,HUEFS,55108,Pereskia bahiensis,2001,1,21,"Guedes, M.L.S.",7791,,Morpar�,Caminho para Serra do Periperi.,-43.266667,-11.266667,Quiabento
PreservedSpecimen,Brasil,Bahia,4164,UEFS,HUEFS,94917,Pereskia stenantha,2005,4,9,"Concei��o, S.F.",191,,,Ponto 2 na estrada de Cocos em dire��o ao Riacho do Meio.,-44.617222,-14.618889,"�rvore ca. 5,0m alt., ramos decumbentes, tronco com espinhos. Folhas membran�ceas. Fruto verde. DNA."
PreservedSpecimen,Brasil,Bahia,4165,UEFS,HUEFS,132703,Pereskia stenantha,2007,11,24,"Guedes, M.L.S.",13954,,Carinhanha,M�dio do S�o Francisco.,-43.79,-14.799722,
PreservedSpecimen,Brasil,Bahia,4185,UEFS,HUEFS,180267,Pilosocereus catingicola subsp. salvadorensis,2011,7,24,"Matos, E.N.de",199,,Janda�ra,Costa Azul.,-49.468611,-11.472222,"Erva terrestre, ca. 3m alt. cor azulada. D 58"
PreservedSpecimen,Brasil,Bahia,4190,UEFS,HUEFS,96435,Pilosocereus densiareolatus,2005,4,10,"Castro, R.M.",1187,,Coribe,Alagoinha.,-44.732222,-14.716667,Arbusto ca. 2 m alt. Flores passadas roseas.
PreservedSpecimen,Brasil,Bahia,4211,UEFS,HUEFS,245940,Pilosocereus gounellei,2018,2,19,"Cardoso, D.",4415,,Barra,"Ibiraba, Comunidade de Icatu, plot #1 Projeto Nordeste.",-42.819167,-10.820278,"Arbusto bastante ramificado da base, mas formando um pequeno fuste. Clad�dios verdes. Frutos imaturos verdes. Planta #54."
PreservedSpecimen,Brasil,Bahia,4214,UEFS,HUEFS,72597,Pilosocereus gounellei,2003,7,2,"Queiroz, L.P.de",7839,,Campo Alegre de Lourdes,"Morro do Tuiuiu, ca. 10 Km NW de Campo Alegre de Lourdes na estrada para Caracol e Pitomba. Na encosta do Morro.",-43.872778,-9.867222,"Xique-xique Cacto arbustivo at� 2 m alt., ramificados, clad�dio verde-acinzentado. Espinhos brancos, os do �pice ficando amarronzados. Flores com t�palas marrons. Fruto vin�ceo. UNICATA."
PreservedSpecimen,Brasil,Bahia,4222,UEFS,HUEFS,25491,Pilosocereus gounellei subsp. gounellei,1997,2,26,"Queiroz, L.P.de",4873,,Barra,"Ibiraba (=Icatu), em frente ? vila de Ibiraba no caminho para os Brejos.",-42.833333,-10.833333,"Xique-xique cacto colunar com ramifica��o candelabriforme, clad�dios eretos, verde-acinzentados, ar�olas com tricomas canescentes. Frutos imaturos verde-acinzentados, globoso-achatados, semidisc�ides. Na plan�cie arenosa na base das dunas. Freq�ente."
PreservedSpecimen,Brasil,Bahia,4229,UEFS,HUEFS,118329,Pilosocereus pachycladus,2007,4,11,"Queiroz, L.P.de",12831,,Coribe,"Ca, 5 Km S em estrada de terra que cruza pequeno ramal que sai a 5.1 km E de Ponto d'�gua, a 24,4 Km S de S�o F�lix do Coribe na estrada para Coribe.",-44.32,-13.319444,"Cacto colunar, ca. 5,0 m alt. Clad�dio azulado."
PreservedSpecimen,Brasil,Bahia,4230,UEFS,HUEFS,121119,Pilosocereus gounellei subsp. zehntneri,2007,6,4,"Concei��o, A.A.",2306,,Morpar�,Parcela 19. Beira da lagoa do Rio Paramirim.,-43.278889,-11.268333,"Planta ca. 2,0m alt., caule verde com 11 colunas, espinhos marrons, gloqu�dios brancos."
PreservedSpecimen,Brasil,Bahia,4244,UEFS,HUEFS,180255,Pilosocereus pentaedrophorus subsp. pentaedrophorus,2011,7,23,"Matos, E.N.de",167,,Janda�ra,Proximo entrada Fazenda Luzomar.,-49.446667,-11.435556,"Ereto, ca. 3m alt. H 26"
PreservedSpecimen,Brasil,Bahia,4251,UEFS,HUEFS,122325,Pilosocereus tuberculatus,2007,6,19,"Santos, R.M.",1388,,Pil�o Arcado,Dunas.,-42.890833,-10.886389,"�rvore ca. 2,0m alt."
PreservedSpecimen,Brasil,Bahia,4256,UEFS,HUEFS,25431,Pilosocereus tuberculatus,1997,2,23,"Queiroz, L.P.de",4813,,Barra,"Ibiraba (=Icatu), Santa Cruz, em frente ao povoado de Ibiraba, no caminho para os Brejos.",-42.833333,-10.833333,"Mandacaru Cacto colunar, ca. 3,5 m, ramifica��o candelabriforme. Clad�dio verde-azulado. Flores passadas esverdeadas. Freq�ente."
PreservedSpecimen,Brasil,Bahia,4257,UEFS,HUEFS,62670,Pilosocereus tuberculatus,1996,6,23,"Giulietti, A.M.",PCD2965,,Xique-Xique,Dunas do rio S�o Francisco.,-42.772778,-10.771111,
PreservedSpecimen,Brasil,Bahia,4258,UEFS,HUEFS,245969,Pilosocereus tuberculatus,2018,2,20,"Cardoso, D.",4444,,Barra,"Ibiraba, Comunidade Paulista, plot #2 Projeto Nordeste.",-42.775556,-10.768611,"Arvoreta. Clad�dios verde-cin�reos, regi�o da �reola dos espinhos tornando-se atropurp�reas. Bot�es florais erverdeados. Frutos verdes. �rvore #226."
PreservedSpecimen,Brasil,Minas Gerais,4271,UFU,HUFU,42940,Pilosocereus machrisii,2005,9,30,"Nakajima, J.N.; Romero, R.; Arantes, A.A.A.; Hattori, E.K.O.",4001,,Furnas,"Estrada para pedreira Souza, ca. 2km da Rodovia MG 050",-46.264722,-20.633889,"Cerca de 2m. T�ralas vinho, t�palas internas alvas."
PreservedSpecimen,Brasil,Minas Gerais,4272,UFU,HUFU,70411,Pilosocereus machrisii,2003,10,21,"Volpi, R.L.; Nakajima, J.N.; Pacheco, R.A.; Fleury-Silva, H.R. & Rosa, P.O.",726,,Delfin�polis,Estrada para Gurita,-46.871111,-20.281111,"Planta ca. 0,4 m alt. Frutos verdes dourados.; Cerrado Rupestre."
PreservedSpecimen,Brasil,Bahia,4339,NY,NY,470201,Arrojadoa rhodantha,2001,4,1,J. G. Jardim,3366,,,Malhada: Rod. BR 030 Malhada/Palmas de Monte Alto. 19.2 km da sede municipal,-43.6108,-14.2864,<a href='http://sweetgum.nybg.org/science/vh/specimen_details.php?irn=525863' target='other'> <mi>dwc_moreinfo</mi></a>
PreservedSpecimen,Brasil,Bahia,4736,NY,NY,645510,Pereskia stenantha,1980,4,19,R. M. Harley,21543,,,"Basin of the Upper Sao Francisco River. Fazenda Imbuzeiro da On�a, ca. 8 km from Bom Jesus da Lapa, on by-road to Calderao",-43.37,-13.15,<a href='http://sweetgum.nybg.org/science/vh/specimen_details.php?irn=187584' target='other'> <mi>dwc_moreinfo</mi></a>
PreservedSpecimen,Brasil,Bahia,4737,NY,NY,645511,Pereskia stenantha,1980,5,1,R. M. Harley,22011,,,"Chapadao Ocidental da Bahia. 5 km to the North of Tabocas, which is 10 km NW of Serra Dourada. E3",-44.03,-12.65,<a href='http://sweetgum.nybg.org/science/vh/specimen_details.php?irn=187583' target='other'> <mi>dwc_moreinfo</mi></a>
PreservedSpecimen,Brasil,Distrito Federal,4741,NY,NY,2210869,Opuntia,1979,6,12,E. P. Heringer,1539,,,"Estrada para Planaltina, ponte sobre o Rio S�o Bartolomeu.",-47.9294,-15.7797,<a href='http://sweetgum.nybg.org/science/vh/specimen_details.php?irn=2343606' target='other'> <mi>dwc_moreinfo</mi></a>
PreservedSpecimen,Brasil,Paran�,4810,NY,NY,645602,Rhipsalis cereuscula,1966,9,5,G. G. Hatschbach,14648,,Ponta Grossa Mun.,Anfiteatre,-50.1617,-25.095,<a href='http://sweetgum.nybg.org/science/vh/specimen_details.php?irn=702296' target='other'> <mi>dwc_moreinfo</mi></a>
PreservedSpecimen,Brasil,Paran�,4811,NY,NY,645401,Lepismium warmingianum,1966,9,5,G. G. Hatschbach,14645,,Ponta Grossa Mun.,Anfiteatre,-50.1617,-25.095,<a href='http://sweetgum.nybg.org/science/vh/specimen_details.php?irn=311623' target='other'> <mi>dwc_moreinfo</mi></a>
PreservedSpecimen,Brasil,Paran�,4812,NY,NY,645402,Lepismium warmingianum,1966,9,5,G. G. Hatschbach,14645,,Ponta Grossa Mun.,Anfiteatro,-50.1617,-25.095,<a href='http://sweetgum.nybg.org/science/vh/specimen_details.php?irn=311629' target='other'> <mi>dwc_moreinfo</mi></a>
PreservedSpecimen,Brasil,Bahia,4828,NY,NY,996966,Pereskia,1992,6,10,A. M. V. de Carvalho,3964,,Bom Jesus da Lapa Mun.,Concre��es rochosas calc�reas onde fica a gruta do Bom Jesus.,-43.4181,-13.2553,<a href='http://sweetgum.nybg.org/science/vh/specimen_details.php?irn=1140714' target='other'> <mi>dwc_moreinfo</mi></a>
PreservedSpecimen,Brasil,Goi�s,4843,NY,NY,996973,Pilosocereus machrisii,1965,10,19,H. S. Irwin,9317,,Alto Para�so de Goi�s Mun.,"Chapada dos Veadeiros, ca. 12 km N.W. of Alto Para�so de Goi�s (formerly Veadeiros).",-47.59528,-14.04001,<a href='http://sweetgum.nybg.org/science/vh/specimen_details.php?irn=1140747' target='other'> <mi>dwc_moreinfo</mi></a>
PreservedSpecimen,Brasil,Paran�,4885,NY,NY,645632,Rhipsalis dissimilis,1996,7,6,H. F. Oliveira,346,,Ponta Grossa Mun.,Parque Estadual Vila Velha (Arenitos),-50.001697,-25.25301,<a href='http://sweetgum.nybg.org/science/vh/specimen_details.php?irn=727663' target='other'> <mi>dwc_moreinfo</mi></a>
PreservedSpecimen,Brasil,Paran�,4886,NY,NY,645576,Rhipsalis baccifera,1996,7,6,H. F. Oliveira,345,,Ponta Grossa Mun.,Parque Estadual Vila Velha (Lagoa Dourada),-49.97,-25.25,<a href='http://sweetgum.nybg.org/science/vh/specimen_details.php?irn=29409' target='other'> <mi>dwc_moreinfo</mi></a>
PreservedSpecimen,Brasil,Paran�,4887,NY,NY,645352,Lepismium cruciforme,1996,1,27,H. F. Oliveira,332,,Ponta Grossa Mun.,Parque Estadual Vila Velha (Lagoa Dourada),-49.97,-25.25,<a href='http://sweetgum.nybg.org/science/vh/specimen_details.php?irn=315647' target='other'> <mi>dwc_moreinfo</mi></a>
PreservedSpecimen,Brasil,Paran�,4888,NY,NY,645600,Rhipsalis cereuscula,1996,8,29,H. F. Oliveira,355,,Ponta Grossa Mun.,"Parque Estadual Vila Velha, Lagoa Dourada",-49.97,-25.25,UPCB-31406 <a href='http://sweetgum.nybg.org/science/vh/specimen_details.php?irn=702294' target='other'> <mi>dwc_moreinfo</mi></a>
PreservedSpecimen,Brasil,Paran�,4953,NY,NY,645604,Rhipsalis cereuscula,1989,9,1,J. M. Silva,644,,Tibagi Mun.,"Rodovia BR-376, pr�ximo ao trevo para Tibagi",-50.4133,-24.5094,<a href='http://sweetgum.nybg.org/science/vh/specimen_details.php?irn=702295' target='other'> <mi>dwc_moreinfo</mi></a>
PreservedSpecimen,Brasil,Bahia,4955,NY,NY,1192906,Tacinga inamoena,2001,4,16,J. G. Jardim,3573,,Carinhanha Mun.,"Rod. para Cocos, 13 km W da cidade",-43.8669,-14.2292,<a href='http://sweetgum.nybg.org/science/vh/specimen_details.php?irn=1396356' target='other'> <mi>dwc_moreinfo</mi></a>
PreservedSpecimen,Brasil,Bahia,4958,NY,NY,470200,Arrojadoa rhodantha,2001,4,15,J. G. Jardim,3500,,Carinhanha Mun.,"Rod. para Serra do Ramalho, 33.5 km da sede municipal",-43.72,-14.0133,<a href='http://sweetgum.nybg.org/science/vh/specimen_details.php?irn=525862' target='other'> <mi>dwc_moreinfo</mi></a>
PreservedSpecimen,Brasil,Goi�s,5026,NY,NY,996937,Cereus jamacaru colcirupicola,1968,1,24,H. S. Irwin,19110,,Cocalzinho de Goi�s Mun.,"50 km N. of Corumb� de Goi�s on road to Niquel�ndia, valley of Rio Maranh�o. Serra dos Pirineus.",-48.6,-15.57,<a href='http://sweetgum.nybg.org/science/vh/specimen_details.php?irn=1139303' target='other'> <mi>dwc_moreinfo</mi></a>
PreservedSpecimen,Brasil,Goi�s,5035,NY,NY,996972,Pilosocereus machrisii,1965,11,1,H. S. Irwin,9716,,Cristalina Mun.,Serra dos Cristais. 5 km W. of Cristalina,-47.6,-16.79518,<a href='http://sweetgum.nybg.org/science/vh/specimen_details.php?irn=1140744' target='other'> <mi>dwc_moreinfo</mi></a>
PreservedSpecimen,Brasil,Goi�s,5136,NY,NY,996974,Pilosocereus machrisii,1965,11,1,H. S. Irwin,9716,,Cristalina Mun.,Serra dos Cristais. 5 km W. of Cristalina,-47.6,-16.79518,<a href='http://sweetgum.nybg.org/science/vh/specimen_details.php?irn=1140755' target='other'> <mi>dwc_moreinfo</mi></a>
PreservedSpecimen,Brasil,Paran�,5180,NY,NY,645722,Rhipsalis pulvinigera,1914,9,25,P. K. H. Dus�n,15591,,,Vila Velha,-50.012929,-25.234872,<a href='http://sweetgum.nybg.org/science/vh/specimen_details.php?irn=636436' target='other'> <mi>dwc_moreinfo</mi></a>
PreservedSpecimen,Brasil,Bahia,5184,NY,NY,645418,Tacinga inamoena,1972,3,2,W. R. Anderson,36462,,,Espigao Mestre. Serra 34 km W of Barreiras,-44.99,-12.15,<a href='http://sweetgum.nybg.org/science/vh/specimen_details.php?irn=14372' target='other'> <mi>dwc_moreinfo</mi></a>
