basisofrecord,country,stateprovince,seq,institutioncode,collectioncode,catalognumber,scientificname,yearcollected,monthcollected,daycollected,collector,collectornumber,fieldnumber,county,locality,longitude,latitude,notes
PreservedSpecimen,Brasil,Bahia,239,UFC,EAC,62871,Arrojadoa rhodantha,2014,8,6,"Guedes, M.L.; Roque, N.; Campos, L.; Gandara, A.",22192,,Lic�nio de Almeida,Trilha para Riacho de Areia,-42.576111,-14.759167,"Subarbusto cil�ndrico, pouco ramificado. Costelas contendo muitas ar�olas com espinhos avermelhados. Ar�ola flor�fera apical dotada de tufos de tricomas lanosos alvos, flores r�seas.; Caatinga."
PreservedSpecimen,Brasil,S�o Paulo,304,FURB,FLOR,61154,Rhipsalis floccosa,2013,8,19,"Marcusso, G.M.",191,,Botucatu,"Escola do Meio Ambiente, ca. 850m.",-48.4586111,-22.9255556,Holoep�fita obrigat�ria
PreservedSpecimen,Brasil,Goi�s,307,FURB,FLOR,68560,,2012,10,21,"Paula-Souza, J.; Delfini, C.; Rigon, J.",11157,,Cristalina,"Estrada para o assentamento Vit�ria, ca. 2km E da BR-040.",-47.5861111,-16.7572222,"Em Cerrado degradado em beira de estrada. Planta de 50cm alt., frutos vin�ceos. Sobre afloramento rochoso"
MachineObservation,Brasil,Goi�s,308,FMM,FMM,2416,Discocactus heptacanthus,2016,10,15,,,,Alto Para�so de Goi�s,Parque Nacional da Chapada dos Veadeiros,-47.826458,-14.163411,H�bito: Erva; Dom�nio Fitogeogr�fico: Cerrado; Vegeta��o: Cerrado rupestre
MachineObservation,Brasil,Goi�s,309,FMM,FMM,2546,Pilosocereus machrisii,2017,9,29,,,,Alto Para�so de Goi�s,Parque Nacional da Chapada dos Veadeiros,-47.739756,-14.114578,H�bito: Erva; Dom�nio Fitogeogr�fico: Cerrado; Vegeta��o: Campo rupestre
PreservedSpecimen,Brasil,Minas Gerais,393,IMA,MAC,2051,Rhipsalis lindbergiana,1973,9,1,D.Sucre; et al.,10190,,Tim�teo,"Parque Florestal do Rio Doce, Reves de Belem.",-45.931442,-18.884675,"Ep�fita ca 2,5m de comprimento, Semi umbr�fila, Flores creme-esverdeados, Bot�es avermelhados."
PreservedSpecimen,Brasil,Minas Gerais,551,USP,SPF,80936,Cereus jamacaru,1988,10,17,"Harley, RM",25147,,Curral de Dentro,,-41.95,-15.883333,
PreservedSpecimen,Brasil,Goi�s,562,UFG,UFG,69407,Pilosocereus,2001,10,21,"Fonseca, M.L.; et al.",2991,,Monte Alegre de Goi�s,,-46.661111,-13.149167,"Erva heli�fita ca. 2,0 m altura; saxicola; clad�dios cor verde com espinhos; calice verde, p�talas brancas; estames escuros. Abundante neste local. (Pr�ximo � linha 6)."
PreservedSpecimen,Brasil,Mato Grosso,568,INPA,INPA,164591,Epiphyllum phyllanthus,1990,10,28,"Mac�do, M",2974,,Paranatinga,"Paranatinga, Margem direita, C�rrego Santiago, Agrochapada.",-54.339186,-14.5989,Solo arenoso.
PreservedSpecimen,Brasil,Mato Grosso,581,INPA,INPA,42716,Epiphyllum phyllanthus,1973,10,19,"Prance, GT",19224,,Chapada dos Guimar�es,"Buriti a Chapada dos Guimar�es, Between Buriti and Chapada dos Guimar�es.",-55.760833,-15.4436,Epiphyte; corolla yellow tinted red.; Dry forest on sandy soil.
PreservedSpecimen,Brasil,Mato Grosso,613,INPA,INPA,74955,Cactus,1976,11,30,"Mac�do, M",410,,Cuiab�,"Estrada do Engenho Velho, Estrada do Engenho Velho, Cuiab�.",-56,-15.6,Cerrado. Solo argiloso.
PreservedSpecimen,Brasil,Goi�s,629,INPA,INPA,233258,Cereus,2008,11,4,"Meneguzzo, TEC",25,,Planaltina,"Bioma Cerrado, fitofisionomia Mata Seca com afloramentos de calc�rio. Hospedeira de Encyclia linearifolioides (Kr�enzl.) Hoene (Orchidaceae; T.E.C. Meneguzzo & L.C. Santos 24, UB). Nas fendas de rocha calc�rea.",-47.969722,-15.406667,"Flores possivelmente brancas ou bege, caractere n�o preciso devido ao fato das flores estarem murchando. Caule 1,5-1,8(3,0) x 0,5-0,9m."
PreservedSpecimen,Brasil,Par�,631,INPA,INPA,224173,Cereus,2006,6,14,"Oliveira, DR de",73,,Oriximin�,,-56.155833,-13.043056,
PreservedSpecimen,Brasil,Bahia,640,FURB,UB,,Cereus jamacaru,2017,7,4,"Ara�jo, JF",IFN-589222.4,,Cotegipe,,-44.8197223,-11.8797223,"Medi��es na subunidade completa. Conglomerado BA-589. Subunidade 2. Subparcela 4. Indiv�duo 9; �rvore; 5m de altura; DAP 14,6cm. Exsudato aquoso, incolor, muito abundante, l�quido. Espinhos no caule. Base do caule do tipo reta; Conglom"
PreservedSpecimen,Brasil,Minas Gerais,641,FURB,UB,216939,Micranthocereus oliveirae,2013,11,14,"Oliveira, MR",s.n.,,Mato Verde,,-42.7688889,-15.3280556,Campo rupestre
PreservedSpecimen,Brasil,Maranh�o,646,FURB,UB,,Melocactus zehntneri,2018,1,31,"Silva, RM",IFN-721258-,,Carolina,,-46.9802778,-7.2002778,Conglomerado MA-721. Subunidade -. Subparcela -. Indiv�duo 3. Extra; H�rbacea. Espinhos; �rea plana de Cerrado sentido restrito
PreservedSpecimen,Brasil,Maranh�o,664,UFBA,ALCB,122126,,2015,10,6,"Guedes, ML; Chagas, F das; Silveira, ER",24138,,Barra do Corda,Cachoeira do Rio do Corda.,-45.292778,-5.688056,Folhas com vena��o paralelin�rvea. Infloresc�ncia protegida por br�cteas foli�ceas.
PreservedSpecimen,Brasil,Piau�,682,FURB,UB,,,2018,7,10,"Viana, G",IFN-555101extra,,Bom Jesus,Fazenda Lagoa.,-44.2802778,-9.3594444,"Conglomerado PI-555. Extra; �rvore; dap: 13,9; ht: 6,00; presen�a de espinhos; base reta; casca: esverdeado (cor externa),esverdeado (cor interna), fina, lisa; �rea de vegeta��o mata seca, floresta dec�dua."
PreservedSpecimen,Brasil,Bahia,686,FURB,UB,,Discocactus catingicola,2017,8,21,"Moura, EO",IFN-9931524extr,,Correntina,,-45.1797223,-13.5058333,"Coleta n�o registrada em formul�rios anteriores - extra. Conglomerado BA-993. Subunidade -. Subparcela -. Indiv�duo -; Herb�cea; Margens de vereda. Solo areno-argiloso, seco"
PreservedSpecimen,Brasil,Goi�s,687,FURB,UB,216938,Discocactus fariae-peresii,2015,12,10,"Faria, BP; Peres, A",s.n.,,Planaltina,,-47.5075,-15.2638889,"Plants single, flat-globular, 16-22cm in diameter, sterile when collected; Highland Campo cerrado and Campo rupestre, between rocks and sandy soil"
PreservedSpecimen,Brasil,Piau�,688,FURB,UB,217307,Discocactus zehntneri mirohalfarii,2021,3,19,"Zachar, M",1787,,Juazeiro do Piau�,Boa F�. Arredores do C�nion do Rio Poty.,-41.9747223,-5.5375,
PreservedSpecimen,Brasil,Maranh�o,702,UEMA,SLUI,4942,Melocactus violaceus,2017,4,6,"Saraiva, R.V.C.",38,,Carolina,Parque Nacional da Chapada das Mesas,-47.041,-7.315778,"Arbusto, folhas grandes com espinhos, frutos verdes, flor branca com estames amarelos, presen�a de formigas."
PreservedSpecimen,Brasil,Bahia,710,UEFS,HUEFS,84905,Discocactus catingicola,2004,1,14,"Machado, M.",125C,,Barreiras,Cachoeira do Redondo no Rio de Janeiro (cerca de 20km em estrada de terra depois da Cachoeira do Acaba Vidas),-45.439722,-11.448056,"Cacto disc�ide-globular, colora��o verde-clara."
PreservedSpecimen,Brasil,Bahia,711,UEFS,HUEFS,84835,Discocactus heptacanthus subsp. catingicola,2004,1,14,"Machado, M.",125A,,Barreiras,Cachoeira do Redondo no Rio de Janeiro (cerca de 20km em estrada de terra depois da Cachoeira do Acaba Vidas),-45.439722,-11.448056,"Cacto disc�ide-globular, colora��o verde-clara."
PreservedSpecimen,Brasil,Bahia,712,UEFS,HUEFS,84834,Discocactus heptacanthus subsp. catingicola,2004,1,13,"Machado, M.",105,,S�o Desid�rio,"S�tio Grande, localidade conhecida como Jatob�s",-45.076944,-12.073889,"Cacto disc�ide-globular, colora��o verde-clara."
PreservedSpecimen,Brasil,Bahia,729,UEFS,HUEFS,118327,Cereus jamacaru,2007,4,11,"Queiroz, L.P.de",12829,,Coribe,"Ca, 5 Km S em estrada de terra que cruza pequeno ramal que sai a 5.1 km E de Ponto d'�gua, a 24,4 Km S de S�o F�lix do Coribe na estrada para Coribe.",-44.32,-13.319444,"Cacto colunar, ca. 3,0 m alt."
PreservedSpecimen,Brasil,Bahia,745,UEFS,HUEFS,131491,Cereus mirabella,2007,11,3,"Ara�jo, G.",368,,Formosa do Rio Preto,Primavera.,-45.071944,-11.0775,Planta com caule clad�dio. Com flores.
PreservedSpecimen,Brasil,Bahia,746,UEFS,HUEFS,131500,Cereus mirabella,2007,11,3,"Ara�jo, G.",377,,Formosa do Rio Preto,Primavera.,-45.071944,-11.0775,"Clad�dio, com flores."
PreservedSpecimen,Brasil,Mato Grosso do Sul,748,UEFS,HUEFS,231152,Cereus stenogonus,2010,12,5,"Quinet, A.",2364,,Bonito,Rio Perdido.,-56.720833,-21.725,
PreservedSpecimen,Brasil,Minas Gerais,749,UEFS,HUEFS,253465,Arthrocereus melanurus,2007,12,8,"Souza, F.S.",322,,Rio Preto,R.P.P.N. S�o Louren�o do Funil.,-43.951111,-18.950556,
PreservedSpecimen,Brasil,Minas Gerais,755,UEFS,HUEFS,107350,Micranthocereus albicephalus,2006,1,11,"Machado, M.",757,,Mato Verde,"ca. 12km a leste de Mato Verde na estrada para Santo Ant�nio do Retiro, afloramentos de granito ao sul da estrada",-42.775,-15.770556,"Pequeno arbusto de ca. 2m de altura, ramificado apenas na base, ramos de ca. 8cm de largura, dividido em ca. 25 costelas pouco profundas, epiderme de cor verde; ar�olas com espinhos numerosos, amarelos-escuro. Regi�o flor�fera na lateral dos ramos, for"
PreservedSpecimen,Brasil,Minas Gerais,756,UEFS,HUEFS,107349,Arrojadoa eriocaulis,2006,1,11,"Machado, M.",756,,Mato Verde,"ca. 12km a leste de Mato Verde na estrada para Santo Ant�nio do Retiro, tabuleiro arenoso ao norte da estrada",-42.775,-15.770556,"Cacto com ramos de 20 a 50cm em comprimento e 1cm de largura, ramificando a partir da base, ar�olas com tricomas esbranqui�ados, �pice dos ramos desenvolvendo cef�lio terminal com recorr�ncia de crescimento vegetativo; base do caule formando um tub�rcul"
PreservedSpecimen,Brasil,Minas Gerais,759,UEFS,HUEFS,107348,Arrojadoa dinae,2006,1,10,"Machado, M.",755,,Montezuma,ca. 13km a oeste de Montezuma em estrada de terra para Espinosa (ca. 4km ap�s o povoado de Areal em dire��o a Periperi),-42.614722,-15.604444,"Cacto com ramos de 20 a 50cm em comprimento e 1cm de largura, ramificando a partir da base, ar�olas com tricomas esbranqui�ados, �pice dos ramos desenvolvendo cef�lio terminal com recorr�ncia de crescimento vegetativo; presen�a de caules tuberosos de ar"
PreservedSpecimen,Brasil,Bahia,763,UEFS,HUEFS,14823,Arrojadoa dinae,1993,10,27,"Queiroz, L.P.de",3605,,Caetit�,"Ca. 7 Km S de Caetit�, na estrada para Brejinho das Ametistas. Gerais (campo cerrado com �rvores esparsas).",-42.533333,-14.533333,Cacto subarbustivo de ca. 60 cm de altura. os clad�dios ligeiramente prostrados. Flores com tubo externamente rosa-cheque e lobos brancos.
PreservedSpecimen,Brasil,Bahia,765,UEFS,HUEFS,249141,Cereus jamacaru,2019,2,25,"Moonlight, P.W.",1522,,Caetit�,"Nordeste plot CAE-01, ca. 2.5 km NW of BA-156 from Caetit� to Brejinho das Ametistas, reached via windfarm access road for 2km W, farm access road for 1km N, then 500 m walk W.",-42.529722,-14.525,"Cactus to 4m. Stem blue-grey, spines white at base to black at tips. Nordeste Parcela CTI-01, voucher outside plot"
PreservedSpecimen,Brasil,Bahia,766,UEFS,HUEFS,249127,Pilosocereus,2019,2,25,"Moonlight, P.W.",1508,,Caetit�,"Nordeste plot CAE-01, ca. 2.5 km NW of BA-156 from Caetit� to Brejinho das Ametistas, reached via windfarm access road for 2km W, farm access road for 1km N, then 500 m walk W.",-42.529722,-14.525,"Cactus, braching from base and often to 4m. Stems dark, dull green. Spines bronze to white. Nordeste Parcela CTI-01, �rvore #26"
PreservedSpecimen,Brasil,Goi�s,781,UEFS,HUEFS,84902,Discocactus catingicola,2004,1,15,"Machado, M.",131B,,Posse,Arredores da cidade.,-46.315556,-14.305556,"Cacto disc�ide, colora��o verde-clara."
PreservedSpecimen,Brasil,Goi�s,782,UEFS,HUEFS,84836,Discocactus heptacanthus subsp. catingicola,2004,1,15,"Machado, M.",131A,,Posse,arredores da cidade,-46.315556,-14.305556,"Cacto disc�ide-globular, colora��o verde-clara."
PreservedSpecimen,Brasil,Goi�s,783,UEFS,HUEFS,84903,Discocactus heptacanthus subsp. catingicola,2004,1,15,"Machado, M.",131C,,Posse,Arredores da cidade.,-46.315556,-14.305556,"Cacto disc�ide-globular, colora��o verde-clara."
PreservedSpecimen,Brasil,Bahia,784,UEFS,HUEFS,84904,Discocactus heptacanthus subsp. catingicola,2004,1,14,"Machado, M.",125B,,Barreiras,Cachoeira do Redondo no Rio de Janeiro (cerca de 20km em estrada de terra depois da Cachoeira do Acaba Vidas),-45.439722,-11.448056,"Cacto disc�ide-globular, colora��o verde-clara."
PreservedSpecimen,Brasil,Bahia,837,UEFS,HUEFS,180289,Melocactus violaceus,2011,7,29,"Matos, E.N.de",302,,Conde,Fazenda Cezo.,-49.587222,-11.596111,Cabe�a-de-frade Cacto terrestre. Flores rosa. LA 164
PreservedSpecimen,Brasil,Bahia,839,UEFS,HUEFS,130801,Melocactus zehntneri,2007,6,22,"Martinelli, G.",16210,,S�o Desid�rio,,-44.953611,-12.9625,
PreservedSpecimen,Brasil,Bahia,859,UEFS,HUEFS,107346,Micranthocereus albicephalus,2006,1,10,"Machado, M.",753,,Lic�nio de Almeida,"ca. 17km ao norte de Lic�nio de Almeida na estrada para Brejinho das Ametistas, afloramentos de arenito a ca. 1km ao oeste da estrada",-42.530833,-14.517778,"Pequeno arbusto de ca. 2m de altura, ramificado apenas na base, ramos de ca. 8cm de largura, dividido em ca. 25 costelas pouco profundas, epiderme de cor verde; ar�olas com espinhos numerosos, amarelos-escuro. Regi�o flor�fera na lateral dos ramos, for"
PreservedSpecimen,Brasil,Goi�s,860,UEFS,HUEFS,149429,Micranthocereus estevesii,2009,4,23,"Cardoso, D.",2519,,S�o Domingos,"Afloramento calc�rio em frente da Fazenda Cedro, depois da travessia da balsa de S�o Domingos.",-46.830556,-13.828056,"Cacto arborescente 1-2,5 m alt., com apenas uma coluna, crescendo entre as pedras. Flores com p�talas brancas e odor suave; antese noturna. Foto."
PreservedSpecimen,Brasil,Minas Gerais,881,UEFS,HUEFS,107353,Micranthocereus violaciflorus,2006,1,11,"Machado, M.",760,,Gr�o Mogol,"ca. 28.5km a leste do entroncamento da BR-251 com a estrada para Riacho dos Machados, pr�ximo a torre de telecomunica��es",-42.871389,-16.866944,"Pequeno arbusto de ca. 1m de altura, ramificado apenas na base, ramos de ca. 3cm de largura, dividido em ca. 15 costelas pouco profundas, epiderme de cor verde; ar�olas com espinhos numerosos, amarelos a avermelhados, e longos tricomas brancos."
PreservedSpecimen,Brasil,Minas Gerais,896,UEFS,HUEFS,226073,Leocereus bahiensis,2017,1,22,"Fantinati, M.R.",180,,Monte Azul,Serra de Montevid�u.,-42.802778,-15.808056,"Cacto colunar ereto a semi-escandente, ramificado, 0,5-1,0 m altura. Ar�olas e espinhos dourados."
PreservedSpecimen,Brasil,Bahia,912,UEFS,HUEFS,251730,Epiphyllum phyllanthus,2018,10,4,"Simon, M.F.",3495,,Formosa do Rio Preto,"ESEC Serra Geral do Tocantis. Beira do rio Sap�o, 2 Km W do acampamento da Vila dos Prazeres",-46.096667,-10.093056,
PreservedSpecimen,Brasil,Bahia,920,UEFS,HUEFS,118328,Facheiroa cephaliomelana,2007,4,11,"Queiroz, L.P.de",12830,,Coribe,"Ca, 5 Km S em estrada de terra que cruza pequeno ramal que sai a 5.1 km E de Ponto d'�gua, a 24,4 Km S de S�o F�lix do Coribe na estrada para Coribe.",-44.32,-13.319444,"Cacto colunar, ca. 3,0 m alt."
PreservedSpecimen,Brasil,Minas Gerais,970,UEFS,HUEFS,246508,Cereus jamacaru,2015,10,12,"Martinelli, G.",18838,,S�o Gon�alo do Rio Preto,"Parque Estadual do Rio Preto, Vale das Estrelas.",-43.379167,-18.380556,
PreservedSpecimen,Brasil,Minas Gerais,972,UEFS,HUEFS,107355,Arrojadoa eriocaulis,2006,1,12,"Machado, M.",762,,Gr�o Mogol,"alguns kil�metros na estrada saindo da cidade em dire��o ? BR-251, tabuleiro arenoso ao norte da estrada",-42.938611,-16.940556,"cacto com ramos de 20 a 50cm em comprimento e 1cm de largura, ramificando a partir da base, ar�olas com tricomas esbranqui�ados, �pice dos ramos desenvolvendo cef�lio terminal com recorr�ncia de crescimento vegetativo; presen�a de caules tuberosos de ar"
PreservedSpecimen,Brasil,Minas Gerais,973,UEFS,HUEFS,107356,Discocactus pseudoinsignis,2006,1,12,"Machado, M.",764,,Gr�o Mogol,"alguns kil�metros na estrada saindo da cidade em dire��o ? BR-251, tabuleiro arenoso ao norte da estrada",-42.938611,-16.940556,"Cacto de caule disc�ide-achatado, n�o ramificado, de colora��o verde; epiderme glauca; costelas inteiras, n�o divididas em tub�rculos; �pice do caule formando cef�lio terminal composto de espinhos, cerdas e tricomas; ar�olas com espinhos fortes, de colo"
PreservedSpecimen,Brasil,Minas Gerais,974,UEFS,HUEFS,107352,Discocactus placentiformis,2006,1,11,"Machado, M.",759,,Gr�o Mogol,"ca. 28.5km a leste do entroncamento da BR-251 com a estrada para Riacho dos Machados, pr�ximo a torre de telecomunica��es",-42.871389,-16.866944,"Cacto de caule disc�ide-achatado, n�o ramificado, de colora��o verde; epiderme cerosa, brilhante; costelas mais ou menos divididas em tub�rculos; �pice do caule formando cef�lio terminal composto de espinhos, cerdas e tricomas; ar�olas com espinhos fort"
PreservedSpecimen,Brasil,Minas Gerais,976,UEFS,HUEFS,165350,Arrojadoa dinae,2010,10,27,"Queiroz, L.P.de",14967,,Monte Azul,Ca. 20 Km SE de Monte Azul.,-42.811944,-15.807222,"Cacho colunar, 20-40 cm alt., crescendo em fendas estreitas entre rochas. Flores com perianto rosa-choque, lobos brancos."
PreservedSpecimen,Brasil,Minas Gerais,977,UEFS,HUEFS,107351,Arrojadoa rhodantha,2006,1,11,"Machado, M.",758,,Mato Verde,"ca. 9km a leste de Mato Verde na estrada para Santo Ant�nio do Retiro, afloramentos de granito ao norte da estrada",-42.804167,-15.805556,"Pequeno arbusto de ca. 1m de altura, ramificado, ramos de ca. 4cm de largura, desenvolvendo cef�lio terminal com recorr�ncia de crescimento vegetativo; ar�olas com espinhos amarelados. Flores nascidas no cef�lio, diurnas, tubulares, de cor rosa; frutos"
PreservedSpecimen,Brasil,Minas Gerais,978,UEFS,HUEFS,226072,Micranthocereus albicephalus,2017,1,22,"Fantinati, M.R.",179,,Monte Azul,Serra de Montevid�u.,-42.801944,-15.808611,"Cacto colunar 0,8-1,3 m. Espinhos ferrug�neos na base e dourados no �pice. Cef�lio lateral com hipertricomia. Tricomas alvos a acinzentados."
PreservedSpecimen,Brasil,Minas Gerais,979,UEFS,HUEFS,226071,Cipocereus pusilliflorus,2017,1,21,"Fantinati, M.R.",178,,Monte Azul,Serra de Montevid�u.,-42.801944,-15.808611,"Cacto colunar sem ramifica��es, com constri��es, ca. 50 cm. Espinhos marrom claros na base e levemente dourado no �pice. Segmentos externos do perianto magenta e segmentos internos alvos. Fruto magenta com perianto enegrecido persistente."
PreservedSpecimen,Brasil,Bahia,1129,UEFS,HUEFS,118265,Quiabentia zehntneri,2007,4,11,"Queiroz, L.P.de",12768,,Coribe,"Ca, 5 Km S em estrada de terra que cruza pequeno ramal que sai a 5.1 km E de Ponto d'�gua, a 24,4 Km S de S�o F�lix do Coribe na estrada para Coribe.",-44.32,-13.319444,"Arbusto a arvoreta, 1,0-3,0 m alt. Folhas suculentas."
PreservedSpecimen,Brasil,Minas Gerais,1288,NBC,NL-BOTANY,U 0180570,Pilosocereus coerulescens aurilanatus,1964,1,1,Ritter F,"Ritter, F 1325",,,Brazil. Minas Gerais. Joaquim Felicio.,-44.178309,-17.754905,
PreservedSpecimen,Brasil,S�o Paulo,1297,UNESP-IBB,BOTU,32966,Nopalea cochenillifera,2017,4,7,"Silva, S.C.M.",4,,Botucatu,Pr�ximo ao Departamento de Bot�nica,-48.443333,-22.988889,
PreservedSpecimen,Brasil,S�o Paulo,1298,UNESP-IBB,BOTU,33071,Nopalea cochenillifera,2017,11,8,"Silva, S.C.M.",10,,Botucatu,"Rua Rangel Pestana, 402 - centro",-48.846667,-23,
PreservedSpecimen,Brasil,S�o Paulo,1302,UNESP-IBB,BOTU,1165,Rhipsalis,1972,10,31,"Ferreira, M.E.",12,,Botucatu,Pr�ximo a esta��o da estrada de ferro Sorocabana,-48.416667,-22.75,"Vegeta��o de cerrado solo arenoso, arbusto"
PreservedSpecimen,Brasil,S�o Paulo,1303,UNESP-IBB,BOTU,1174,Rhipsalis,1972,9,6,"Katayama, P.S.",19,,Botucatu,"A 20 km de Botucatu, Fazenda Mac e 4 Meninas",-48.375,-22.875,Ep�fita de 2 metros
PreservedSpecimen,Brasil,S�o Paulo,1304,UNESP-IBB,BOTU,1175,Rhipsalis,1972,9,9,"Doi, T.",51,,Botucatu,"A 20 km de Botucatu, Fazenda Mac",-48.375,-22.875,"Ep�fita, flor branca"
PreservedSpecimen,Brasil,S�o Paulo,1305,UNESP-IBB,BOTU,1177,Rhipsalis baccifera,1972,9,6,"Rodrigues, J.M.V.",24,,Botucatu,,-48.375,-22.875,"Planta de 1,5 m de altura, caule verde, flor amarela"
PreservedSpecimen,Brasil,S�o Paulo,1306,UNESP-IBB,BOTU,1178,Rhipsalis baccifera,1972,9,19,"Souza, E.L.",14,,Botucatu,,-48.375,-22.875,Planta sem folhas e flor branca
PreservedSpecimen,Brasil,S�o Paulo,1307,UNESP-IBB,BOTU,1179,Rhipsalis baccifera,1972,9,19,"Jaquetti Jr., J.",37,,Botucatu,,-48.375,-22.875,"Ep�fita, flores brancas, caule suculento"
PreservedSpecimen,Brasil,S�o Paulo,1308,UNESP-IBB,BOTU,1168,Rhipsalis cereuscula,1972,9,19,"Alonso, J.C.",24,,Botucatu,"A 20 km de Botucatu, Fazenda Mac",-48.5,-22.866667,"Ep�fita, flor amarela, sem cheiro"
PreservedSpecimen,Brasil,S�o Paulo,1309,UNESP-IBB,BOTU,29408,Rhipsalis floccosa,2003,11,11,"Bignotto, R.B.",127,,Botucatu,"Distrito de Rubi�o J�nior, UNESP IB - Jardim Bot�nico",-48.433333,-22.866667,"Ep�fita 4m, frutos brancos.; Cole��o: Jardim Bot�nico UNESP Botucatu"
PreservedSpecimen,Brasil,S�o Paulo,1310,UNESP-IBB,BOTU,35196,Rhipsalis floccosa,2020,7,23,"Biral, L.",2245,,Botucatu,Mata ciliar do Rio Lavap�s,-48.448725,-22.886792,
PreservedSpecimen,Brasil,S�o Paulo,1312,UNESP-IBB,BOTU,1180,Rhipsalis linearis,1972,9,19,"Jaquetti Jr., J.",2,,Botucatu,"A 20 km de Botucatu, Fazenda Mac e 3 Marias",-48.375,-22.875,Ep�fita com flor branca
PreservedSpecimen,Brasil,S�o Paulo,1313,UNESP-IBB,BOTU,29407,Riphsalis,2003,9,30,"Bignotto, R.B.",34,,Botucatu,"Distrito de Rubi�o J�nior, UNESP IB - Jardim Bot�nico",-48.433333,-22.866667,"Ep�fita a 6m, sobre tronco de �rvores, flores amarelas secas, frutos imaturos verdes e transparentes.; Cole��o: Jardim Bot�nico UNESP Botucatu"
PreservedSpecimen,Brasil,Piau�,1579,UEFS,HUEFS,235661,Pilosocereus,2017,4,20,"Mizushima, M.",189,,Buriti dos Lopes,,-41.742778,-3.745,"Cereus Cacto, 4 metros. 5 cristas. Leaf material preserved in silica-gel for DNA analysis."
PreservedSpecimen,Brasil,Minas Gerais,1638,UEFS,HUEFS,226070,Arrojadoa rhodantha,2017,1,21,"Fantinati, M.R.",177,,Mato Verde,� leste de Mato Verde em dire��o ? Santo Ant�nio do Retiro.,-42.802778,-15.808333,"Cacto colunar, 40-60 cm altura. Cef�lios em anel. Espinhos marrons. Flores magenta. Fruto magenta com perianto enegrecido persistente."
PreservedSpecimen,Brasil,S�o Paulo,1671,UFJF,CESJ,68806,Rhipsalis teres,2013,9,24,G.M. Marcusso,265,,Porto Ferreira,Parque Estadual de Porto Ferreira,-47.416822,-21.843131,Flores brancas.
MachineObservation,Brasil,Minas Gerais,2039,FVD,FVD,22,Cipocereus minensis,2010,6,4,,,,Serro,Milho Verde,-43.470556,-18.481667,"Planta rup�cola em lajedo, colunar, de aproximadamente 1,5m de altura. Altitude aproximada.; Dom�nio fitogeogr�fico: Cerrado; Vegeta��o: Vegeta��o sobre afloramento rochoso"
PreservedSpecimen,Brasil,S�o Paulo,2159,UNESP-IBB,BOTU,33070,Brasiliopuntia brasiliensis,2017,11,8,"Silva, S.C.M.",9,,Botucatu,"Rubi�o J�nior, R. Camino Meneguim",-48.846667,-22.996944,
PreservedSpecimen,Brasil,S�o Paulo,2163,UNESP-IBB,BOTU,10600,Epiphyllum phyllanthus,1974,10,10,"Gottsberger, I.S.",101074,,Botucatu,"18km north of Botucatu (14 km east of S�o Manuel). Along the S�o Manuel- Piracicaba highway. Near ex-RR station, 13 de Maio",-48.416667,-22.75,"Altitude ca. 550m. Uma �rea de cerrado, consistindo de dois morros e um vale no meio. A �rea � preservada pela Usina de A��car de S�o Manuel; ; Cole��o: Cerrado Esta��o 13 de Maio"
PreservedSpecimen,Brasil,S�o Paulo,2166,UNESP-IBB,BOTU,1170,Lepismium warmingianum,1972,9,19,"Izar, L.A.H.",1,,Botucatu,"A 20 km de Botucatu, Fazenda Mac e 4 Meninas",-48.375,-22.875,Flor branca
PreservedSpecimen,Brasil,S�o Paulo,2167,UNESP-IBB,BOTU,1171,Lepismium warmingianum,1972,9,19,"Malosso, C.R.",1,,Botucatu,"A 20 km de Botucatu, Fazenda Mac",-48.375,-22.875,"Ep�fita, flor branca, sem cheiro"
PreservedSpecimen,Brasil,Minas Gerais,2184,NY,NY,996940,Cipocereus minensis,1969,2,21,H. S. Irwin,23675,,Crist�lia Mun.,"Serra do Espinha�o, ca. 18 km west of Gr�o Mogol",-42.9909,-16.65775,<a href='http://sweetgum.nybg.org/science/vh/specimen_details.php?irn=1139331' target='other'> <mi>dwc_moreinfo</mi></a>
PreservedSpecimen,Brasil,Minas Gerais,2185,NY,NY,996971,Pilosocereus fulvilanatus,1969,2,21,H. S. Irwin,23684,,Crist�lia Mun.,"Serra do Espinha�o, ca. 18 km west of Gr�o Mogol",-42.9909,-16.65775,<a href='http://sweetgum.nybg.org/science/vh/specimen_details.php?irn=1140743' target='other'> <mi>dwc_moreinfo</mi></a>
PreservedSpecimen,Brasil,Minas Gerais,2186,NY,NY,996969,Pilosocereus coerulescens,1970,3,16,H. S. Irwin,27652,,Diamantina Mun.,"Serra do Espinha�o, Ca. 8 km E. of Diamantina, road to Extra��o.",-43.601,-18.24,<a href='http://sweetgum.nybg.org/science/vh/specimen_details.php?irn=1140730' target='other'> <mi>dwc_moreinfo</mi></a>
PreservedSpecimen,Brasil,Minas Gerais,2312,FURB,VIES,45807,Rhipsalis floccosa,2019,8,29,"Rangel, E.B.; Mendes, P.D.; Fonseca, R.S.; Iglesias, D.T.",130,,Rio Pardo de Minas,�rea pr�xima a sede. Parque Estadual de Serra Nova e Talhado,-42.7394444,-15.6472222,"Epifita, flores brancas. Prensado em �lcool. Habitat: Solo �mido"
PreservedSpecimen,Brasil,Minas Gerais,2406,MBM,MBM,416379,Pereskia grandifolia,2018,11,16,"Cordeiro, J; Brotto, ML",5923,,Couto de Magalh�es de Minas,,-43.483889,-18.108056,"Arbusto com 2,8 cm de altura; corola magenta/roxa.; Campo rupestre."
PreservedSpecimen,Brasil,Minas Gerais,2410,MBM,MBM,416226,Pilosocereus fulvilanatus,2018,11,15,"Brotto, ML; Cordeiro, J",3031,,Gr�o Mogol,Serra Periperi,-42.929167,-16.536667,"Erva ereta com 90 cm de altura; flor amarelo-claro, caule azul-acinzentado.; Campo rupestre com elementos de Caatinga."
PreservedSpecimen,Brasil,Minas Gerais,2413,MBM,MBM,415820,Micranthocereus auriazureus,2018,11,5,"Cordeiro, J; Brotto, ML",5635,,Santana do Riacho,"Lapinha da Serra, trilha do Pico da Lapinha",-43.674167,-19.1125,Erva rup�cola; fruto imaturo.; Campo rupestre.
PreservedSpecimen,Brasil,Minas Gerais,2414,MBM,MBM,438887,Micranthocereus auriazureus,2022,6,10,"Brotto, ML; V�ltz, RR",5056,,Crist�lia,pr�ximo ao rio Itacambiru�u,-42.9075,-16.603056,Erva rup�cola suculenta com 50 cm de altura; flor r�sea.; Campo rupestre.
PreservedSpecimen,Brasil,Minas Gerais,2454,MBM,MBM,383780,,2013,4,28,"Brotto, ML; Barboza, E; Cordeiro, J; Vaz, J",1202,,Rio Vermelho,Serra do Ambr�sio,-43.043806,-18.129583,Erva 10cm; flor amarela.; Campo rupestre.
PreservedSpecimen,Brasil,Minas Gerais,2464,UFMG,BHCB,192551,Brasiliopuntia brasiliensis,2018,8,10,"Ferreira, VL; Stehmann, JR; Moreira, NC",20,,Lagoa Santa,Lapinha,-43.958889,-19.560556,"Planta com 1,5 metros e frutos vermelho escuro.; Afloramento de calc�reo. Maci�o. Ilha de solo."
PreservedSpecimen,Brasil,Minas Gerais,2465,UFMG,BHCB,192554,Brasiliopuntia brasiliensis,2018,9,18,"Ferreira, VL; Stehmann, JR",23,,Pedro Leopoldo,Lapa do Ba�,-43.992778,-19.548611,"Planta com 2 metros e frutos vermelho escuro .; Afloramento de calc�reo, mata seca."
PreservedSpecimen,Brasil,Minas Gerais,2466,UFMG,BHCB,200879,Brasiliopuntia brasiliensis,2019,11,8,"Ferreira, VL; Magalh�es, RA; Vilas Boas, T",439,,Pedro Leopoldo,Lapa do Ba�,-43.992222,-19.548333,Flor amarela; Afloramento de calc�rio. Rocha exposta no maci�o
PreservedSpecimen,Brasil,Minas Gerais,2467,UFMG,BHCB,200872,Cereus jamacaru calcirupicola,2019,11,8,"Ferreira, VL; Magalh�es, RA; Vilas Boas, T",433,,Pedro Leopoldo,Lapa do Ba�,-43.9925,-19.548056,Afloramento de calc�rio. Rocha exposta no maci�o
PreservedSpecimen,Brasil,Minas Gerais,2468,UFMG,BHCB,154902,Coleocephalocereus,2012,3,23,"G�es-Neto, LAA; Portugal-Santana, A; Miranda, PLS; Ara�jo, D; Salino, A",743,,Rio Pardo de Minas,"Parque Estadual de Serra Nova, Pr�ximo ao tanque de �gua de Serra Nova",-42.742778,-15.649167,
PreservedSpecimen,Brasil,Minas Gerais,2475,UFMG,BHCB,154824,Tacinga inamoena,2012,3,21,"Araujo, D; Portugal-Santana, A; Miranda, PLS; G�es-Neto, LAA; Stehmann, JR",2067,,Rio Pardo de Minas,"Parque Estadual de Serra Nova, Estrada da trilha para c�rrego da Velha (escorregador)",-42.733889,-15.615833,"Prensado em �lcool; Erva, frutos imaturos verdes, maduros amarelos; Entre rochas"
PreservedSpecimen,Brasil,Minas Gerais,2476,UNICAMP,UEC,114521,Brasilicereus markgrafii,2000,8,16,"Aona, LYS; Belinello, R",699,,Gr�o Mogol,"Parque Estadual G.M., inicio da trilha para Serra do Bar�o.",-45.886111,-16.653056,"At� 1 m, espinho central amarelo, bot�o com perianto externo esverdeado com �pice vermelho, cultivo."
PreservedSpecimen,Brasil,Bahia,2479,UNICAMP,UEC,39819,Pereskia aureiflora,1977,3,25,"Harley, RM; Mayo, SJ; Storr, RM; Santos, TS; Pinheiro, RS",19992,,Rio de Contas,Serra do Rio de Contas 13 km E of the town of Vila do Rio de Contas on the road to Marcolino Moura. Caatinga with riverine vegetation and associated cultivation on sandy soil.,-42.394019,-13.975756,"Tree to 4m. Leaves fleshy, paler below. Fruit orbicular, chocolate-purple."
PreservedSpecimen,Brasil,Minas Gerais,2481,UNICAMP,UEC,117841,Arrojadoa dinae eriocaulis,1988,11,9,"Harley, RM; Taylor, N; Zappi, DC",25518,,Rio Pardo de Minas,12 Km de Mato Verde na estrada para Sto. Ant�nio do Retiro.,-42.75,-15.383333,"Cacto com raiz principal tuberosa napiforme, at� 11 cm de comprimento x 12 cm de di�metro. Caules estreitos e lenhosos na base (? s vezes 4-6 mm de largura), expandindo-se at� 17 mm de largura, altura at� 50 cm, com at� 3 an�is de cef�l"
PreservedSpecimen,Brasil,Minas Gerais,2486,UNICAMP,UEC,125333,Arthrocereus melanurus,2000,11,21,"Kinoshita, LS; Aona, LYS",00/127,,Jaboticatubas,"Serra do Cip�, Estrada para sede do IBAMA, cerrado e campo rupestre.",-43.640194,-19.3605,"12-14 costelas, medula mucilaginosa, fruto jovem esverdeado com tricomas."
PreservedSpecimen,Brasil,Minas Gerais,2488,UNICAMP,UEC,114874,Pilosocereus fulvilanatus fulvilanatus,2000,8,16,"Aona, LYS; Belinello, R",695,,Gr�o Mogol,"Estrada p/ Crist�lia, afloramento. 13 Km de Gr�o-Mogol.",-45.886111,-16.653056,"3m, ar�ola 0,5cm, cef�lio com pelos dourados, flor 5,5-6,5x3,5cm, fruto 8cm di�metro."
PreservedSpecimen,Brasil,Minas Gerais,2490,MBM,MBM,416216,Tacinga inamoena,2018,11,14,"Cordeiro, J; Brotto, ML",5860,,Crist�lia,,-42.925278,-16.603889,Erva; fruto verde.; Savana (Cerrado sensu stricto).
PreservedSpecimen,Brasil,Bahia,2588,UNICAMP,UEC,52511,Pereskia stenantha,1980,5,1,"Harley, RM; Bromley, GL; Carvalho, AM; Hage, JL; Brito, HS",22011,,Brejol�ndia,"Chapad�o Ocidental da Bahia, 5 Km to the North of Tabocas, which is 10 Km N.W. of Serra Dourada. Disturbed deciduous forest, cultivation and marshyarea with rice fields.",-44.605858,-12.810389,"Shrub to 3 m with few spines. Leaves fleshy, mid green, paler beneath. Flower bud bright pinkish red, surrounded by smaller fleshy green leaves. Fruit green."
PreservedSpecimen,Brasil,Minas Gerais,2591,UNICAMP,UEC,103418,Pilosocereus aurisetus aurisetus,1998,12,18,"Aona, LYS; Faria, AD; Mansanares, ME; Feres, FR; Belinello, R",98/31,,Gouveia,"Sentido Diamantina, MG 259, a 8 Km de Gouveia.",-43.902778,-18.614167,
PreservedSpecimen,Brasil,Minas Gerais,2596,UNICAMP,UEC,114802,Pilosocereus densiareolatus,2000,8,15,"Aona, LYS; Belinello, R",686,,Montes Claros,"BR 135 em dire��o a Janu�ria, Km 354, afloramento.",-43.901111,-16.664722,Ca. 3m.
PreservedSpecimen,Brasil,Piau�,2597,UNICAMP,UEC,133185,Pilosocereus flavipulvinatus,2002,4,22,"Alencar, ME",1449,,Piracuruca,Floresta de PEDRA (1�. Cidade) - PARNA de Sete Cidades.,-41.681194,-4.096861,"�rvore ca. 4,0m de altura, n�o ramifica na base, com sete costelas, frutos imaturos arroxeados, freq. m�dia. Subst. afloramento rochoso.; Cerrado RUPESTRE."
PreservedSpecimen,Brasil,Minas Gerais,2598,UNICAMP,UEC,114875,Pilosocereus fulvilanatus fulvilanatus,2000,8,16,"Aona, LYS; Belinello, R",706,,Gr�o Mogol,"Parque Estadual G.M., trilha da Serra do Bar�o.",-42.894167,-16.551667,"2m de altura, cef�lio 80 cm, com pelos dourados, fruto esverdeado."
PreservedSpecimen,Brasil,Minas Gerais,2599,UNICAMP,UEC,114879,Pilosocereus fulvilanatus fulvilanatus,2000,8,17,"Aona, LYS; Belinello, R",712,,Gr�o Mogol,"28,4 Km de Caveira em dire��o a Salinas, BR 251, afloramento localizado ao lado de uma torre de r�dio.",-42.873333,-16.215278,"Flor 5,5x3,0cm, semi-aberta as 11:30H, fruto com di�metro 8,5-9,5cm."
PreservedSpecimen,Brasil,Piau�,2606,UNICAMP,UEC,133187,Pilosocereus gounellei gounellei,2002,4,22,"Alencar, ME",1450,,Piracuruca,Floresta de PEDRA (1�. Cidade) - PARNA de Sete Cidades.,-41.681194,-4.096861,"Arbusto ca. 2,0m, candelabriforme, com 10 costelas, frutos imaturos, freq. m�dia. Subst. afloramento rochoso.; Cerrado RUPESTRE."
PreservedSpecimen,Brasil,Minas Gerais,2607,UNICAMP,UEC,114882,Pilosocereus gounellei zehntneri,2000,8,15,"Aona, LYS; Belinello, R",688,,Montes Claros,"BR 135 em dire��o a Janu�ria, Km 354, afloramento.",-43.901111,-16.664722,"Ar�ola: 1-1,2cm, cultivo."
PreservedSpecimen,Brasil,Minas Gerais,2619,UNICAMP,UEC,106644,Micranthocereus auriazureus,1987,5,21,"Pirani, JR; Mello-Silva, R",CFCR10773,,Gr�o Mogol,Escarpas ? direita do riacho Ribeir�o.,-45.886111,-16.653056,"Entre rochas. Clad�dios ca. 60 cm de altura, n�o ramificados ou somente na base. Espinhos novos aureos. Bot�es rosa-intenso."
PreservedSpecimen,Brasil,Minas Gerais,2620,UNICAMP,UEC,115071,Micranthocereus auriazureus,2000,8,16,"Aona, LYS; Belinello, R",690,,Gr�o Mogol,"Estrada p/ Crist�lia, afloramento. 13 Km de Gr�o Mogol.",-45.886111,-16.653056,"At� 1,5. Ar�ola: 1 cm, espinhos das ar�olas da base com crescimento hipertr�fico, 7 cm, amarelos, flor 3x1,5 cm, cultivo."
PreservedSpecimen,Brasil,Minas Gerais,2623,UNICAMP,UEC,114979,Micranthocereus albicephalus,2000,8,18,"Aona, LYS; Belinello, R",722,,Mato Verde,"11,6 km o trevo de Mato Verde em dire��o a S.A.Retiro. Serra Geral.",-42.776944,-15.3875,"Bot�o floral rosa, 1,5 - 2 cm, fruto vin�ceo 0,8 - 1 cm."
PreservedSpecimen,Brasil,Minas Gerais,2624,UNICAMP,UEC,106642,Micranthocereus auriazureus,1982,5,21,"Giulietti, AM; Hensold, N; Mamede, MCH; Giulietti, N",CFCR3416,,Gr�o Mogol,"Campo rupestre a sudoeste da cidade, +/- 1 Km.",-42.883333,-16.55,"Arbusto +/- 1 metro, ramos +/- decumbentes a eretos. Flores r�seas."
PreservedSpecimen,Brasil,Minas Gerais,2625,UNICAMP,UEC,115072,Micranthocereus auriazureus,2000,8,16,"Aona, LYS; Belinello, R",705,,Gr�o Mogol,"Serra do Bar�o, Parque Estadual G.M., trilha da Serra do Bar�o. Afloramento.",-42.883333,-16.55,"Espinhos jovens amarelos ouro, espinhos da base alongados."
PreservedSpecimen,Brasil,Goi�s,2626,UNICAMP,UEC,202557,Micranthocereus estevesii,2016,10,17,"Olsthoorn, G; Alencar, LD",GO633,,Monte Alegre de Goi�s,"Na estrada de Campos Belos para Nova Roma, aproximadamente 16 km ao sul do in�cio da estrada.",-46.831944,-13.402778,"Cacto colunar alto, com at� 4 metros de altura, solit�rio sem ramifica��es laterais, ceph�lio lanoso branco na parte superior da planta e com flores brancas"
PreservedSpecimen,Brasil,Minas Gerais,2628,UNICAMP,UEC,114975,Micranthocereus violaciflorus,2000,8,17,"Aona, LYS; Belinello, R",711,,Gr�o Mogol,"28,4 km de Caverna em dire��o a Salinas, BR 251, afloramento localizado ao lado de uma torre de r�dio.",-42.883333,-16.55,"At� 1m, ramificada na base, espinhos da base verde claro a marrom, espinhos do cef�lio avermelhados, a pink, flor 2,5x0,7cm, semi-aberta as 11:30 h, perianto externo salm�o, perianto interno pink, fruto verde."
PreservedSpecimen,Brasil,Bahia,2634,UNICAMP,UEC,198816,Micranthocereus polyanthus,2015,11,6,"Mendes, DB; Machado, M",20,,Caetit�,"Pr�ximo ao cemit�rio de brejinho das ametistas. No mesmo local tamb�m havia <em>Melochatus bahiensis, Melocatus zehnteri, Pilosocereus pachycladus, Tacinga inamoema.</em>",-42.526361,-14.266694,�rea arenosa entre afloramentos de granito
PreservedSpecimen,Brasil,Paran�,2643,UNICAMP,UEC,98104,Rhipsalis teres,1997,12,18,"Torezan, JMD; Arima, LIA; Pimenta, JA; Resende, JCF; Sifuentes, DVO; Rodrigues, RR",764,,Seng�s,Fazenda Pisa-Papel e celulose.,-49.403889,-24.202222,"Erva ep�fita, flor esverdeada com estames brancos.; Floresta Higr�fila, Mata perturbada."
PreservedSpecimen,Brasil,S�o Paulo,2752,UNICAMP,UEC,98157,Rhipsalis puniceo-discus,1997,12,11,"Torezan, JMD; Arima, LIA; Pimenta, JA; Resende, JCF; Sifuentes, DVO; Rodrigues, RR",519,,Bom Sucesso de Itarar�,"Descida da Serra, 10 Km de Bom Sucesso.",-49.160833,-24.274444,"Erva rup�cola. Flores brancas. Frutos alaranjados.; Floresta Estacional Transi��o Montana-Submontana, beira da Estrada."
PreservedSpecimen,Brasil,Minas Gerais,2753,UFMG,BHCB,202256,Pilosocereus fulvilanatus,2019,10,11,"Meyer, PB",3693,,Botumirim,Parque Estadual Botumirim,-43.030278,-16.917222,
PreservedSpecimen,Brasil,Minas Gerais,2754,UFMG,BHCB,202257,Pilosocereus fulvilanatus,2019,10,14,"Meyer, PB",3713,,Botumirim,Parque Estadual Botumirim,-43.041944,-17.046944,
PreservedSpecimen,Brasil,Minas Gerais,2756,UFMG,BHCB,194350,Rhipsalis lindbergiana,2018,9,18,"Ferreira, VL; Stehmann, JR",33,,Pedro Leopoldo,Lapa do Ba�,-43.9925,-19.548333,"C�lice creme, estames brancos.; Afloramento de calc�rio. Maci�o. For�fito."
PreservedSpecimen,Brasil,Minas Gerais,2757,UFMG,BHCB,194390,Rhipsalis lindbergiana,2018,12,11,"Ferreira, VL; Stehmann, JR; Santos, GVA",106,,Pedro Leopoldo,Lapa do Ba�,-43.989444,-19.547778,Flores amarelas.; Borda de mata seca na base de afloramento calc�reo.
PreservedSpecimen,Brasil,Minas Gerais,2758,UFMG,BHCB,208556,Epiphyllum phyllanthus,2022,2,24,"Faria, FS; Arruda, AJ",s.n.,,Santana do Riacho,Cachoeira Serra Morena,-43.910833,-19.263889,Ep�fita em borda de riacho; Campo rupestre substrato rochoso. Afloramento rochoso ? esquerda pr�ximo ? cachoeira
PreservedSpecimen,Brasil,Minas Gerais,2760,UFMG,BHCB,211311,Pereskia violaceae,2022,9,23,"Faria, FS; Santos, VJ",s.n.,,Jaboticatubas,Parque Nacional da Serra do Cip�,-43.618889,-19.348889,"�rvore 5 m, s�palas magenta, p�talas brancas internamente e magenta externamente; Cutivada"
PreservedSpecimen,Brasil,Minas Gerais,2901,MBML,MBML-HERBARIO,5356,Pereskia grandifolia,1988,8,21,J. W. Tabacow; et C.Chamas,,,Montes Claros,BR Minas,-43.865,-16.737222,"Nome vulgar local: cama de noiva, p�talas rosa forte, miolo amarelo, folhas e c�lice verde, arvoreta 3m, folha concolor com pec�olo verde avermelhado. Quando jovem e lenhoso quando adulto, v�rios ac�leos saindo do mesmo ponto do tronco e alguns galhos."
PreservedSpecimen,Brasil,Mato Grosso do Sul,2992,FURB,COR,16528,Cereus hildmannianus,2010,11,30,"Martinelli, G.; Fernandez, E.",16700,,Corumb�,"Morro do Caracar�, divisa com MT, pr�ximo ao PARNA do Pantanal. Floresta estacional semidec�dua com afloramentos rochosos.",-57.2605556,-15.5177778,"4 m de altura; caules verdes ramificados; espinhos castanhos; caule na base lenhoso; Com Flor: Flores com c�lice/ br�ctea verdes com margem no �pice vinoso, p�talas alvas, bot�es florais verde alvacentos, frequente Habito: Cacto colonar"
PreservedSpecimen,Brasil,Bahia,3119,UFS,ASE,21930,Epiphyllum phyllanthus,2008,3,8,"Oliveira, M",3283,,S�o Desid�rio,"S�tio Rio Grande, Barragem rio das femeas. Complexo vegetacional (Cerrado, Caatinga e Mata). Vegeta��o arb�reo-arbustivo espa�ado. Solo arenoso de colora��o esbranqui�ada com pouca serrapilheira.",-44.973056,-12.363333,"Ep�fita. Frutos imaturos esverdeados, maturos avermelhados. Frequente.; Ep�fita. Frutos imaturos esverdeados, maturos avermelhados. Frequente.; Complexo vegetacional (Cerrado, Caatinga e Mata)."
PreservedSpecimen,Brasil,Santa Catarina,3254,FURB,JOI,18874,Pereskia aculeata,2021,10,12,"Reinert, G.",1,,Araquari,Barra Itapoc�,-48.7147222,-23.5488889,Frutos alaranjados Habitat: Terrestre Habito: Arbustivo
PreservedSpecimen,Brasil,Bahia,3271,FURB,UB,,Cereus albicaulis,2017,7,18,"Soares, AS",IFN-5392091.1,,Riach�o das Neves,,-45,-11.7,"Conglomerado BA_539. Subunidade 1. Subparcela 1. Indiv�duo 5.&nf;F8 - Avalia��o da regenera��o natural; Arbusto 1,3m. Estruturas no caule/fuste tipo espinhos. Base do tipo reta; Cerrad�o com solo arenoso"
PreservedSpecimen,Brasil,Piau�,3272,FURB,UB,,Cereus albicaulis,2017,10,27,"Gomes, MS",IFN-5713342.1,,Reden��o do Gurgu�ia,,-44.46,-9.54,"Conglomerado PI-571. Subunidade 2. Subparcela 1. Indiv�duo 1. F8; Cacto com 1,60m, com espinhos; Cerrado em regi�o com morros"
PreservedSpecimen,Brasil,Bahia,3275,FURB,UB,,Cereus jamacaru,2017,12,14,"Moraes, TM",IFN-3099731.6,,Santa Rita de C�ssia,,-44.6408333,-10.7997222,"Conglomerado BA-309. Subunidade 1. Subparcela 6. Indiv�duo 28. F6; �rvore, altura 3,7m, DAP 10,6cm. Presen�a de espinhos no caule. Base reta; Solo pedregoso, relevo ondulado, Cerrado"
PreservedSpecimen,Brasil,Minas Gerais,3290,FURB,MCCA,3937,,2019,8,29,"Rangel, E.B.; Mendes, P.D.; Fonseca, R.S.; Iglesias, D.T.",130,,Rio Pardo de Minas,�rea pr�xima a sede. �rea pr�xima a sede. Parque Estadual de Serra Nova e Talhado,-42.7394444,-15.6472222,"Epifita, flores brancas. Prensado em �lcool."
PreservedSpecimen,Brasil,Minas Gerais,3318,UNICAMP,UEC,114519,Cipocereus minensis,2000,8,16,"Aona, LYS; Belinello, R",708,,Gr�o Mogol,Parque. Afloramento.,-43.491944,-16.944986,Bot�o com epiderme azulada.
PreservedSpecimen,Brasil,Minas Gerais,3319,UNICAMP,UEC,132038,Cipocereus minensis,2001,7,9,"Souza, VC; Souza, JP; Rom�o, GO; Ara�jo, AO",25553,,Joaquim Fel�cio,"Serra do Cabral, Estrada Joaquim Fel�cio - V�rzea da Palma, ca. 12 km de Joaquim Fel�cio.",-44.198333,-17.69,"Planta de ca. 1,2 m de altura; clad�dio acinzentado; bot�es azul-escuros. Entre rochas.; Afloramento rochoso com campo alag�vel adjacente."
PreservedSpecimen,Brasil,Minas Gerais,3327,UNICAMP,UEC,125376,Epiphyllum phyllanthus,2000,11,23,"Kinoshita, LS; Aona, LYS",00/271,,Santana do Riacho,"Serra do Cip�, Cerrado, estrada para Santana do Riacho.",-43.616667,-19.316667,Ep�fita.
PreservedSpecimen,Brasil,S�o Paulo,3330,UNICAMP,UEC,43990,Epiphyllum phyllanthus,1983,11,23,"Ratter, JA; Argent, GCG; Shepherd, GJ; Tamashiro, JY",4963,,,Floresta de Angatuba. Instituto Florestal de SP.,-48.416667,-23.45,"Epiphyte on the trunk of a large tree. Inner tepals flushed reddish violet outside, white within. Flower with a strong scent of dung.; In dense, thicket cerrado."
PreservedSpecimen,Brasil,Paran�,3335,UNICAMP,UEC,98102,Hatiora salicornioides,1997,12,18,"Torezan, JMD; Arima, LIA; Pimenta, JA; Resende, JCF; Sifuentes, DVO; Rodrigues, RR",757,,Seng�s,Fazenda Pisa-Papel e celulose.,-49.403889,-24.202222,"Erva, ep�fita, frutos maduros r�seos.; Floresta Higr�fila, mata perturbada."
PreservedSpecimen,Brasil,Minas Gerais,3362,UNICAMP,UEC,114520,Brasilicereus markgrafii,2000,8,16,"Aona, LYS; Belinello, R",691,,Gr�o Mogol,"Estrada p/ Crist�lia, afloramento. 13 km de Gr�o -Mogol.",-45.886111,-16.653056,"At� 1 m, cultivo."
PreservedSpecimen,Brasil,Minas Gerais,3363,UNICAMP,UEC,117839,Brasilicereus markgrafii,1988,10,15,"Harley, RM; Giulietti, AM; Stannard, BL; Hind, DJN; Kameyama, C; Prado, J",25069,,Gr�o Mogol,"Ca. 7 Km ao dire��o sul da cidade, na estrada para Francisco S�.",-42.933333,-16.616667,"Cact�ceas cespitosas, com raiz lenhosa, n�o tuberosa, atingindo 2,5 m de altura, clad�dios com 10-14 costelas, 1,8-2,0 cm de di�metro, verde-amarelados, crescimento secund�rio dos espinhos acentuado, maiores com 5 cm de comprimento. Fl"
PreservedSpecimen,Brasil,Mato Grosso,3372,UNICAMP,UEC,114411,Cereus,1997,3,17,"Souza, VC; Souza, JP; Duarte, AR; Mazine, FF",14316,,S�o Felix do Araguaia,"Beira do Rio Araguaia, pr�ximo ? cidade de S�o F�lix do Araguaia. Arredores do Lago dos Ingleses e da Fazenda CCA.",-50.67325,-11.636583,Planta at� 6 m de altura; frutos verdes com nuances avermelhados; polpa alva.; Savana Parque. �rea arborizada (Cerrado em solo arenoso).
PreservedSpecimen,Brasil,Minas Gerais,3381,UNICAMP,UEC,114878,Cereus jamacaru,2000,8,15,"Aona, LYS; Belinello, R",687,,Montes Claros,"BR 135 em dire��o a Janu�ria, Km 354, afloramento.",-43.901111,-16.664722,"Ca. 5 m, epiderme verde escuro, ar�ola: 2 cm, espinhos jovens prateados, espinhos velhos pretos."
PreservedSpecimen,Brasil,Minas Gerais,3383,UNICAMP,UEC,114517,Tacinga inamoena,2000,8,16,"Aona, LYS; Belinello, R",698,,Gr�o Mogol,"Parque Estadual G.M., in�cio da trilha para Serra do Bar�o.",-42.883333,-16.55,"Perianto externo verelho, perianto interno amarelo, flor aberta ? s 15:00h e fechada ? s 17:30h."
PreservedSpecimen,Brasil,Minas Gerais,3527,UFVJM,HDJF,5292,Pilosocereus aurisetus aurisetus,2017,1,19,"Fantinati, MR; Soffiatti, P",174,,Presidente Kubitschek,"BR 259, Datas em dire��o ? Serro",-43.59175,-18.571417,"Cacto colunar, 0,5-1,0 m alt., n�o ramificado, suculento, verde oliva. Espinhos marrons na base e amarelados no �pice. Pericarpelo amarronzado. Frutos verdes com remanescente floral enegrecido"
PreservedSpecimen,Brasil,Minas Gerais,3530,UFVJM,HDJF,5287,Cipocereus minensis,2017,1,17,"Fantinati, MR; Soffiatti, P",169,,Gr�o Mogol,Ao longo do Rio Itacambira�u,-42.898167,-16.58425,"Cacto colunar ramificado, 1-2 m alt. Caule suculento, verde, com constri��es. Espinhos de cor palha a amarelados no �pice. Presen�a de remanescentes florais enegrecidos; Afloramento rochoso em meio ? vegeta��o"
PreservedSpecimen,Brasil,Minas Gerais,3531,UFVJM,HDJF,5290,Micranthocereus auriazureus,2017,1,17,"Fantinati, MR; Soffiatti, P",172,,Gr�o Mogol,"1,5 km do entrocamento com a MG 307, dire��o NO ? cidade de Gr�o Mogol",-42.898583,-16.581972,"Cacto colunar, 0,5-1,3 m alt., suculento, glauco. Espinhos marrons na base e amarelados a marrons no �pice. Cef�lio lateral com tricomas alvos; Afloramento rochoso em meio a vegeta��o antropizada."
PreservedSpecimen,Brasil,Minas Gerais,3532,UFVJM,HDJF,2037,Cipocereus minensis,2013,3,6,"Otoni, TJO; Carvalho, LGC",68,,Diamantina,Campus Jk.,-43.571389,-18.199167,"Indiv�duo de 40 cm, fruto azulado.; Cerrado, campo rupestre"
PreservedSpecimen,Brasil,Minas Gerais,3533,UFVJM,HDJF,5279,Arthrocereus rondonianus,2017,1,14,"Fantinati, MR; Soffiatti, P",161,,Joaquim Fel�cio,Cachoeira do Buqueir�o (propriedade particular).,-44.178333,-17.757833,"Cacto colunar, pouco ramificado, 70 cm alt. Espinhos dourados no �pice; Afloramento rochoso, atravessando a cachoeira; local sombreado"
PreservedSpecimen,Brasil,Minas Gerais,3534,UFVJM,HDJF,5280,Cipocereus bradei,2017,1,14,"Fantinati, MR; Soffiatti, P",162,,Joaquim Fel�cio,Cachoeira do Buqueir�o (propriedade particular).,-44.178333,-17.757833,"Cacto colunar, pouco ramificado, 50 cm alt. Espinhos marrons; Afloramento rochoso, atravessando a cachoeira; local sombreado"
PreservedSpecimen,Brasil,Minas Gerais,3535,UFVJM,HDJF,2039,Pilosocereus,2013,3,6,"Otoni, TJO; Carvalho, LGC",70,,Diamantina,Campus Jk.,-43.571389,-18.199167,"Cerrado, campo rupestre"
PreservedSpecimen,Brasil,Minas Gerais,3537,UFVJM,HDJF,5294,Uebelmannia pectinifera pectinifera,2017,1,19,"Fantinati, MR; Soffiatti, P",176,,Diamantina,"MG 220, Diamantina em dire��o ? Conselheiro Mata.",-43.736114,-18.296361,"Cacto globoso, 20-60 cm alt., alongado, suculento, verde amarelado. Costelas retas, 18-22. Espinhos acinzentados, laranjas na parte apical.; Solo arenoso em afloramento rochoso em meio a campo rupestre antropizado"
PreservedSpecimen,Brasil,Minas Gerais,3538,UFVJM,HDJF,5293,Pilosocereus aurisetus aurisetus,2017,1,19,"Fantinati, MR; Soffiatti, P",175,,Diamantina,"MG 220, Diamantina em dire��o ? Conselheiro Mata",-43.736114,-18.296361,"Cacto colunar, 0,5-1,0 m alt., n�o ramificado, suculento, verde oliva. Espinhos marrons na base e amarelados no �pice. Pericarpelo amarronzado. Frutos verdes com remanescente floral enegrecido; Afloramento rochoso em meio a campo rupe"
PreservedSpecimen,Brasil,Minas Gerais,3540,UFVJM,HDJF,5285,Cipocereus crassisepalus,2017,1,15,"Fantinati, MR; Soffiatti, P",166,,Fel�cio dos Santos,MG 317 entre os munic�pios de Fel�cio dos Santos e Rio Vermelho,-43.210861,-18.198222,"Cacto colunar ramificado, ca. 1,70 m alt. Caule suculento, verde. Ar�olas com tricomas amarelados a enegrecidos. Espinhos marrons na base e amarelados no �pice.; Areal de quartzito branco em meio ao Cerrado, ? s margens da estrada"
PreservedSpecimen,Brasil,Minas Gerais,3541,UFVJM,HDJF,2038,Cipocereus minensis,2013,3,6,"Otoni, TJO; Carvalho, LGC",69,,Diamantina,Campus Jk.,-43.571389,-18.199167,"Cerrado, campo rupestre"
PreservedSpecimen,Brasil,Minas Gerais,3542,UFVJM,HDJF,5289,Pilosocereus fulvilanatus fulvilanatus,2017,1,17,"Fantinati, MR; Soffiatti, P",171,,Crist�lia,"MG 307, ? sudoestes, em dire��o ? Crist�lia",-42.898139,-16.593667,"Cacto colunar, 1,0-1,5 m alt., suculento, ramificado, glauco. Costelas retas 4. Ar�olas com hipertricomia de colora��o alva a marrom. Fruto verde a magenta com a polpa magenta e sementes negras"
PreservedSpecimen,Brasil,Minas Gerais,3543,UFVJM,HDJF,5281,Discocactus placentiformis,2017,1,14,"Fantinati, MR; Soffiatti, P",163,,Joaquim Fel�cio,Cachoeira do Buqueir�o (propriedade particular).,-44.178333,-17.757833,"Cacto globoso. Caule suculento, verde, tuberculado. Espinhos cin�reos r�seos nas costelas. Pseudocef�lio com tricomas alvos e espinhos negros dispostos no sentido anti-hor�rio; Afloramento rochoso, atravessando a cachoeira; local somb"
PreservedSpecimen,Brasil,Minas Gerais,3545,UFVJM,HDJF,5288,Melocactus bahiensis amethystinus,2017,1,17,"Fantinati, MR; Soffiatti, P",170,,Gr�o Mogol,MG 307 em dire��o ? cidade de Gr�o Mogol,-42.899667,-16.579722,"Cacto globoso, 30-60 cm alt.. Caule suculento, verde claro. Espinhos longos, marrons a acinzentados; Afloramento rochoso em meio ? vegeta��o antropizada"
PreservedSpecimen,Brasil,Minas Gerais,3548,UFVJM,HDJF,5286,Brasilicereus markgrafii,2017,1,17,"Fantinati, MR; Soffiatti, P",168,,Gr�o Mogol,Ao longo do Rio Itacambira�u,-42.898333,-16.583911,"Cacto colunar ramificado, 1,0-1,70 m alt. Caule suculento, verde. Pericarpelo com br�cteas escamiformes verdes, avermelhadas nos �pices; Afloramento rochoso em meio ? vegeta��o"
PreservedSpecimen,Brasil,Minas Gerais,3549,UFVJM,HDJF,5284,Pilosocereus aurisetus aurilanatus,2017,1,14,"Fantinati, MR; Soffiatti, P",165,,Joaquim Fel�cio,Cachoeira do Buqueir�o (propriedade particular).,-44.178333,-17.757833,"Cacto colunar, 60 cm alt.. Caule suculento, glauco. Espinhos marrons na base e alvos a amarelados no �pice; Afloramento rochoso, atravessando a cachoeira; local sombreado"
PreservedSpecimen,Brasil,Minas Gerais,3588,UFU,HUFU,,Arthrocereus melanurus,2003,10,21,"Volpi, R.L.; Nakajima, J.N.; Pacheco, R.A.; Fleury-Silva; H.R & Rosa, P.O.",726,,Delfin�polis,Estrada para Gurita,-46.871111,-20.281111,"Planta ca. 0,4 m. Frutos verdes dourados; Cerrado Rupestre"
PreservedSpecimen,Brasil,Minas Gerais,3589,UFU,HUFU,26990,,2002,1,24,"Romero, R.",6207,,S�o Roque de Minas,"Parque Nacional da Serra da Canastra, Jusante da Vargem Bonita.",-46.364722,-20.332778,"Ep�fita, frutos r�seos.; Beira da estrada."
PreservedSpecimen,Brasil,Minas Gerais,3590,UFU,HUFU,58542,Cipocereus minensis,2010,9,21,"Rezende, A.R.; Marques, D.; P�go, P.T. & P�dua, K.J.M.",103,,Diamantina,Parque Estadual do Biribiri,-43.623333,-18.219167,"Herb�cea, 0,15 m de alt. Pe�as florais brancas.; Campo Rupestre."
PreservedSpecimen,Brasil,Minas Gerais,3591,UFU,HUFU,71397,Cipocereus minensis,2015,10,7,"Romero, R.; Versiane, A.F.A.; Vital, L.P.; Serra, A.C.; Silva, L.C. & Rosa, B.B.",8809,,Diamantina,"Estrada Diamantina - Conselheiro Mata, ca. 12 Km sul de Diamantina",-43.684444,-18.274444,"Terrestre, ca. 0,8m. Frutos maduros azulados.; Campo Rupestre"
PreservedSpecimen,Brasil,Goi�s,3855,FURB,HJ,2328,Cereus bicolor,2005,10,31,"Souza, L.F.",2675,,Serran�polis,RPPN Pousada das Araras,-51.9952777,-18.4394444,frutos de cor verde Habitat: Mata seca Habito: arbustivo
PreservedSpecimen,Brasil,Goi�s,3856,FURB,HJ,2329,Epiphyllum phyllanthus,2005,1,28,"Souza, L.F.",1818,,Serran�polis,RPPN Pousada das Araras.,-51.9952777,-18.4394444,Cerrado. Habitat: Mata seca Habito: ep�fita
PreservedSpecimen,Brasil,Goi�s,3857,FURB,HJ,2330,Epiphyllum phyllanthus,2004,11,30,"Souza, L.F.",1603,,Serran�polis,RPPN Pousada das Araras.,-51.9952777,-18.4394444,Cerrado. Habitat: Cerrado t�pico Habito: ep�fita
PreservedSpecimen,Brasil,Goi�s,3858,FURB,HJ,2331,Epiphyllum phyllanthus,2004,12,21,"Souza, L.F.",1782,,Serran�polis,RPPN Pousada das Araras.,-51.9952777,-18.4394444,Cerrado. Habitat: Cerrado t�pico Habito: ep�fita
PreservedSpecimen,Brasil,Goi�s,3859,FURB,HJ,6354,Praecereus euchlorus,2012,10,10,"Larocca, J.; Emiliano Ferreira, G.; Grala, F.",51,,Acre�na,BR 060,-50.4136111,-17.4147222,Habitat: Mata seca em afloramento rochoso Habito: herb�ceo
PreservedSpecimen,Brasil,Goi�s,3860,FURB,HJ,6355,Praecereus euchlorus,2012,10,10,"Larocca, J.; Emiliano Ferreira, G.; Grala, F.",52,,Acre�na,BR 060,-50.4136111,-17.4147222,Habitat: Mata seca em afloramento rochoso Habito: herb�ceo
PreservedSpecimen,Brasil,Goi�s,3861,FURB,HJ,6356,Praecereus euchlorus,2012,10,10,"Larocca, J.; Emiliano Ferreira, G.; Grala, F.",50,,Acre�na,BR 060,-50.4419444,-17.4688889,Habitat: Mata seca em afloramento rochoso Habito: herb�ceo
PreservedSpecimen,Brasil,Tocantins,4114,UEFS,HUEFS,239824,Tacinga saxatilis,2017,7,13,"Pezzini, F.F.",277,,Novo Jardim,�rea da Sharp Mineradora,-46.636389,-11.635556,"Fotos, DNA."
PreservedSpecimen,Brasil,Bahia,4115,UEFS,HUEFS,239817,Tacinga saxatilis,2017,7,12,"Pezzini, F.F.",270,,S�o Desid�rio,Afloramento calc�rio,-44.9575,-12.960556,Fotos.
PreservedSpecimen,Brasil,Bahia,4139,UEFS,HUEFS,118301,Pereskia bahiensis,2007,4,11,"Queiroz, L.P.de",12803,,Coribe,"Ca, 5 Km S em estrada de terra que cruza pequeno ramal que sai a 5.1 km E de Ponto d'�gua, a 24,4 Km S de S�o F�lix do Coribe na estrada para Coribe.",-44.32,-13.319444,"Arvoreta ca. 3,5 m alt., suculenta. Folhas suculentas. Flores com p�talas vermelhas."
PreservedSpecimen,Brasil,Piau�,4160,UEFS,HUEFS,83545,Pereskia grandifolia,2003,10,29,"Silva, S.C.C.C.",18,,Teresina,CCA/UFPI.,-42.780556,-5.778611,"mata-a-velha Arbusto, flor freq. boa. Estudo Fitossociol�gico."
PreservedSpecimen,Brasil,Bahia,4164,UEFS,HUEFS,94917,Pereskia stenantha,2005,4,9,"Concei��o, S.F.",191,,,Ponto 2 na estrada de Cocos em dire��o ao Riacho do Meio.,-44.617222,-14.618889,"�rvore ca. 5,0m alt., ramos decumbentes, tronco com espinhos. Folhas membran�ceas. Fruto verde. DNA."
PreservedSpecimen,Brasil,Bahia,4169,UEFS,HUEFS,249063,Pilosocereus,2019,2,21,"Moonlight, P.W.",1444,,Maca�bas,"Path to Nordeste plot MAC-01, Fazenda Roberto ca. 2km down dirt road N from Macaubas. 400m SW as the crow flies from the end of the road",-42.706111,-13.700556,"Cactus to 4m, single or rarely multistemmed. Stem glaucous blue-green with white-black stems. Nordeste Parcela MAC-01, Voucher outside plot"
PreservedSpecimen,Brasil,Bahia,4173,UEFS,HUEFS,213288,Pilosocereus catingicola,2013,11,4,"Silva, T.T.S.",58,,Lic�nio de Almeida,Caminho para Riacho de areia.,-42.577222,-14.578333,Arbusto ca. de 3 m altura. Presen�a de tricomas dourados.
PreservedSpecimen,Brasil,Bahia,4185,UEFS,HUEFS,180267,Pilosocereus catingicola subsp. salvadorensis,2011,7,24,"Matos, E.N.de",199,,Janda�ra,Costa Azul.,-49.468611,-11.472222,"Erva terrestre, ca. 3m alt. cor azulada. D 58"
PreservedSpecimen,Brasil,Bahia,4190,UEFS,HUEFS,96435,Pilosocereus densiareolatus,2005,4,10,"Castro, R.M.",1187,,Coribe,Alagoinha.,-44.732222,-14.716667,Arbusto ca. 2 m alt. Flores passadas roseas.
PreservedSpecimen,Brasil,Piau�,4224,UEFS,HUEFS,61999,Pilosocereus gounellei subsp. gounellei,2002,5,6,"Farias, R.R.",520,,Campo Maior,"Fazenda Loudes, caminho para Lontras.",-42.057222,-4.059167,Xique-Xique
PreservedSpecimen,Brasil,Bahia,4229,UEFS,HUEFS,118329,Pilosocereus pachycladus,2007,4,11,"Queiroz, L.P.de",12831,,Coribe,"Ca, 5 Km S em estrada de terra que cruza pequeno ramal que sai a 5.1 km E de Ponto d'�gua, a 24,4 Km S de S�o F�lix do Coribe na estrada para Coribe.",-44.32,-13.319444,"Cacto colunar, ca. 5,0 m alt. Clad�dio azulado."
PreservedSpecimen,Brasil,Bahia,4244,UEFS,HUEFS,180255,Pilosocereus pentaedrophorus subsp. pentaedrophorus,2011,7,23,"Matos, E.N.de",167,,Janda�ra,Proximo entrada Fazenda Luzomar.,-49.446667,-11.435556,"Ereto, ca. 3m alt. H 26"
PreservedSpecimen,Brasil,Minas Gerais,4271,UFU,HUFU,42940,Pilosocereus machrisii,2005,9,30,"Nakajima, J.N.; Romero, R.; Arantes, A.A.A.; Hattori, E.K.O.",4001,,Furnas,"Estrada para pedreira Souza, ca. 2km da Rodovia MG 050",-46.264722,-20.633889,"Cerca de 2m. T�ralas vinho, t�palas internas alvas."
PreservedSpecimen,Brasil,Minas Gerais,4272,UFU,HUFU,70411,Pilosocereus machrisii,2003,10,21,"Volpi, R.L.; Nakajima, J.N.; Pacheco, R.A.; Fleury-Silva, H.R. & Rosa, P.O.",726,,Delfin�polis,Estrada para Gurita,-46.871111,-20.281111,"Planta ca. 0,4 m alt. Frutos verdes dourados.; Cerrado Rupestre."
PreservedSpecimen,Brasil,Minas Gerais,4338,NY,NY,996931,Arrojadoa dinae,1994,3,15,N. Roque,CFCR15047,,,"Mun de Espinosa e Montezuma, a 35km. Serra do Pau D�rco. Frequentemente queimado e com grande conc. de Melinis.",-42.6408,-15.0819,<a href='http://sweetgum.nybg.org/science/vh/specimen_details.php?irn=1139279' target='other'> <mi>dwc_moreinfo</mi></a>
PreservedSpecimen,Brasil,Mato Grosso,4690,NY,NY,996950,Epiphyllum phyllanthus,1967,10,19,J. Ramos,R. & S.138,,,Collected near the base camp of the expedition. (c. 270 km N of Xavantina.),-51.87,-12.9,<a href='http://sweetgum.nybg.org/science/vh/specimen_details.php?irn=1139491' target='other'> <mi>dwc_moreinfo</mi></a>
PreservedSpecimen,Brasil,Minas Gerais,4691,NY,NY,996955,Epiphyllum phyllanthus,1970,3,10,H. S. Irwin,27302,,,Ca. 3 km E. of Cantoni,-44.13,-17.57,<a href='http://sweetgum.nybg.org/science/vh/specimen_details.php?irn=1139504' target='other'> <mi>dwc_moreinfo</mi></a>
PreservedSpecimen,Brasil,Mato Grosso,4692,NY,NY,996956,Epiphyllum phyllanthus,1968,9,18,R. M. Harley,10110,,,c. 4 km east of Base camp.,-51.77,-12.82,<a href='http://sweetgum.nybg.org/science/vh/specimen_details.php?irn=1139509' target='other'> <mi>dwc_moreinfo</mi></a>
PreservedSpecimen,Brasil,Mato Grosso,4693,NY,NY,996957,Epiphyllum phyllanthus,1967,9,30,G. C. G. Argent,6582,,,Base camp.,-51.77,-12.82,<a href='http://sweetgum.nybg.org/science/vh/specimen_details.php?irn=1139512' target='other'> <mi>dwc_moreinfo</mi></a>
PreservedSpecimen,Brasil,Mato Grosso,4694,NY,NY,996958,Epiphyllum phyllanthus,1973,10,19,G. T. Prance,19224,,,Between Buriti and Chapada dos Guimar�es.,-55.7608333,-15.4436,<a href='http://sweetgum.nybg.org/science/vh/specimen_details.php?irn=1139515' target='other'> <mi>dwc_moreinfo</mi></a>
PreservedSpecimen,Brasil,Distrito Federal,4705,NY,NY,996953,Epiphyllum phyllanthus phyllanthus,1965,9,29,H. S. Irwin,8800,,,Bras�lia. Vicinity of Planaltina,-47.67,-15.62,<a href='http://sweetgum.nybg.org/science/vh/specimen_details.php?irn=1139499' target='other'> <mi>dwc_moreinfo</mi></a>
PreservedSpecimen,Brasil,Distrito Federal,4706,NY,NY,996954,Epiphyllum phyllanthus phyllanthus,1965,9,29,H. S. Irwin,8800,,,Bras�lia. Vicinity of Planaltina,-47.67,-15.62,<a href='http://sweetgum.nybg.org/science/vh/specimen_details.php?irn=1139502' target='other'> <mi>dwc_moreinfo</mi></a>
PreservedSpecimen,Brasil,S�o Paulo,4731,NY,NY,645454,Pereskia aculeata,1981,5,30,K. Mizoguchi,1697,,Bastos Mun.,Cecao de Gloria,-47.38,-21.57,<a href='http://sweetgum.nybg.org/science/vh/specimen_details.php?irn=271752' target='other'> <mi>dwc_moreinfo</mi></a>
PreservedSpecimen,Brasil,Distrito Federal,4738,NY,NY,996960,Nopalea cochenillifera,1980,4,30,E. P. Heringer,4571,,,Bras�lia. Bacia do Rio S�o Bartolomeu.,-47.9294,-15.7797,<a href='http://sweetgum.nybg.org/science/vh/specimen_details.php?irn=1140512' target='other'> <mi>dwc_moreinfo</mi></a>
PreservedSpecimen,Brasil,Distrito Federal,4741,NY,NY,2210869,Opuntia,1979,6,12,E. P. Heringer,1539,,,"Estrada para Planaltina, ponte sobre o Rio S�o Bartolomeu.",-47.9294,-15.7797,<a href='http://sweetgum.nybg.org/science/vh/specimen_details.php?irn=2343606' target='other'> <mi>dwc_moreinfo</mi></a>
PreservedSpecimen,Brasil,Minas Gerais,4781,NY,NY,996945,Epiphyllum phyllanthus phyllanthus,1964,8,23,H. S. Irwin,5477,,Buritis Mun.,Fazenda Furquilho Novo.,-46.4302778,-15.6171,<a href='http://sweetgum.nybg.org/science/vh/specimen_details.php?irn=1139483' target='other'> <mi>dwc_moreinfo</mi></a>
PreservedSpecimen,Brasil,Minas Gerais,4782,NY,NY,996946,Epiphyllum phyllanthus,1964,8,23,H. S. Irwin,5477,,Buritis Mun.,Fazenda Furquilho Novo.,-46.4302778,-15.6171,<a href='http://sweetgum.nybg.org/science/vh/specimen_details.php?irn=1139485' target='other'> <mi>dwc_moreinfo</mi></a>
PreservedSpecimen,Brasil,Goi�s,4843,NY,NY,996973,Pilosocereus machrisii,1965,10,19,H. S. Irwin,9317,,Alto Para�so de Goi�s Mun.,"Chapada dos Veadeiros, ca. 12 km N.W. of Alto Para�so de Goi�s (formerly Veadeiros).",-47.59528,-14.04001,<a href='http://sweetgum.nybg.org/science/vh/specimen_details.php?irn=1140747' target='other'> <mi>dwc_moreinfo</mi></a>
PreservedSpecimen,Brasil,Distrito Federal,4889,NY,NY,996952,Epiphyllum phyllanthus,1964,9,3,H. S. Irwin,5899,,,"Parque Municipal do Gama, ca. 20 km S of Bras�lia.",-48.0638,-16.01719,<a href='http://sweetgum.nybg.org/science/vh/specimen_details.php?irn=1139497' target='other'> <mi>dwc_moreinfo</mi></a>
PreservedSpecimen,Brasil,Distrito Federal,4890,NY,NY,996951,Epiphyllum phyllanthus,1964,9,3,H. S. Irwin,5899,,,"Parque Municipal do Gama, ca. 20 km S of Bras�lia.",-48.0638,-16.01719,<a href='http://sweetgum.nybg.org/science/vh/specimen_details.php?irn=1139493' target='other'> <mi>dwc_moreinfo</mi></a>
PreservedSpecimen,Brasil,Bahia,4952,NY,NY,1192905,Tacinga inamoena,2001,3,31,J. G. Jardim,3325,,Urandi Mun.,"Rod. Licicio de Almeida/Urandi 15,4 km, area montanhosa",-42.5742,-14.7472,<a href='http://sweetgum.nybg.org/science/vh/specimen_details.php?irn=1396358' target='other'> <mi>dwc_moreinfo</mi></a>
PreservedSpecimen,Brasil,Mato Grosso,5021,NY,NY,996949,Epiphyllum phyllanthus phyllanthus,1964,10,7,G. T. Prance,59288,,�gua Boa Mun.,"Between Garapu and river camp, 50 km north of Chavantina. Forest at margin of Rio Vau.",-52.1583,-14.0503,<a href='http://sweetgum.nybg.org/science/vh/specimen_details.php?irn=1139489' target='other'> <mi>dwc_moreinfo</mi></a>
PreservedSpecimen,Brasil,Goi�s,5026,NY,NY,996937,Cereus jamacaru colcirupicola,1968,1,24,H. S. Irwin,19110,,Cocalzinho de Goi�s Mun.,"50 km N. of Corumb� de Goi�s on road to Niquel�ndia, valley of Rio Maranh�o. Serra dos Pirineus.",-48.6,-15.57,<a href='http://sweetgum.nybg.org/science/vh/specimen_details.php?irn=1139303' target='other'> <mi>dwc_moreinfo</mi></a>
PreservedSpecimen,Brasil,S�o Paulo,5031,NY,NY,645441,Opuntia monacantha,1965,2,10,G. Eiten,6010-B,,Paragua�u Paulista Mun.,Along road (to Bor�) ca. 1 km N of city of Paragua�u Paulista,-50.58,-22.4,<a href='http://sweetgum.nybg.org/science/vh/specimen_details.php?irn=34416' target='other'> <mi>dwc_moreinfo</mi></a>
PreservedSpecimen,Brasil,S�o Paulo,5032,NY,NY,645501,Pereskia grandifolia,1965,2,10,G. Eiten,6011,,Paragua�u Paulista Mun.,Along road (to Bor�) ca. 1 km N of city of Paragua�u Paulista,-50.58,-22.4,<a href='http://sweetgum.nybg.org/science/vh/specimen_details.php?irn=345259' target='other'> <mi>dwc_moreinfo</mi></a>
PreservedSpecimen,Brasil,Goi�s,5035,NY,NY,996972,Pilosocereus machrisii,1965,11,1,H. S. Irwin,9716,,Cristalina Mun.,Serra dos Cristais. 5 km W. of Cristalina,-47.6,-16.79518,<a href='http://sweetgum.nybg.org/science/vh/specimen_details.php?irn=1140744' target='other'> <mi>dwc_moreinfo</mi></a>
PreservedSpecimen,Brasil,Mato Grosso,5077,MNHN,RECOLNAT_MNHN_P,P05003237,Epiphyllum phyllanthus,1967,10,1,"Ramos, J.|Souza, R.",,,,"Xavantina-Cachimbo Expedition. Collected near the base camp of the Expedition (c. 270km N of Xavantina). Mato Grosso, Centro-oeste, Brasil, Am�rica do Sul",-51.86667,-12.9,Northern Mato Grosso Expedition 1967/69. Flora of Mato Grosso. Late October or November 1967. <a href='http://coldb.mnhn.fr/catalognumber/mnhn/p/p05003237' target='other'> <mi>dwc_moreinfo</mi></a>
PreservedSpecimen,Brasil,Mato Grosso,5078,MNHN,RECOLNAT_MNHN_P,P05003240,Epiphyllum phyllanthus,1967,9,30,"Argent, G.|Ramos, J.|Richards, P.W.|Souza, R.",,6582,,"Expedfition Base Camp. Mato Grosso, Centro-oeste, Brasil, Am�rica do Sul",-51.76667,-12.81667,Plateau Royal Society/Royal Geographical Society Expedition 1967-1969. Central Brazilian. . <a href='http://coldb.mnhn.fr/catalognumber/mnhn/p/p05003240' target='other'> <mi>dwc_moreinfo</mi></a>
PreservedSpecimen,Brasil,Goi�s,5136,NY,NY,996974,Pilosocereus machrisii,1965,11,1,H. S. Irwin,9716,,Cristalina Mun.,Serra dos Cristais. 5 km W. of Cristalina,-47.6,-16.79518,<a href='http://sweetgum.nybg.org/science/vh/specimen_details.php?irn=1140755' target='other'> <mi>dwc_moreinfo</mi></a>
PreservedSpecimen,Brasil,Minas Gerais,5167,NY,NY,996980,Rhipsalis floccosa,1972,2,18,W. R. Anderson,36209,,,"Serra do Espinha�o, Serra do Cip�",-43.566908,-19.391522,<a href='http://sweetgum.nybg.org/science/vh/specimen_details.php?irn=1140776' target='other'> <mi>dwc_moreinfo</mi></a>
PreservedSpecimen,Brasil,Bahia,5184,NY,NY,645418,Tacinga inamoena,1972,3,2,W. R. Anderson,36462,,,Espigao Mestre. Serra 34 km W of Barreiras,-44.99,-12.15,<a href='http://sweetgum.nybg.org/science/vh/specimen_details.php?irn=14372' target='other'> <mi>dwc_moreinfo</mi></a>
